{"version" : "1.1.0", "count" : 382, "categories" : [{"id" : "7d7229c0-462d-48b5-88e5-1b784183d3dd", "name" : "居家", "name_en" : null, "name_pinyin" : null, "name_pinyin_abbr" : null, "icon" : "居家_cateic_jujia.png", "type" : "expense", "parent_id" : null}, {"id" : "a281d9ba-55eb-4c8b-83fa-62bed3e50fc2", "name" : "居家", "name_en" : "Home", "name_pinyin" : null, "name_pinyin_abbr" : null, "icon" : "居家_cateic_jujia.png", "type" : "expense", "parent_id" : null}, {"id" : "d4781ed6-0688-4949-936e-744b3acb3e46", "name" : "教育", "name_en" : null, "name_pinyin" : null, "name_pinyin_abbr" : null, "icon" : "教育_cateic_jiaoyu.png", "type" : "expense", "parent_id" : null}, {"id" : "b65d59b2-a16f-4f56-a6b0-52a67bd02f0b", "name" : "教育", "name_en" : "Education", "name_pinyin" : null, "name_pinyin_abbr" : null, "icon" : "教育_cateic_jiaoyu.png", "type" : "expense", "parent_id" : null}, {"id" : "92c47dc4-fdd3-4366-88cb-9280df244021", "name" : "交通", "name_en" : "jiaotong", "name_pinyin" : "jiaotong", "name_pinyin_abbr" : "jt", "icon" : "交通_cateic_jiaotong.png", "type" : "expense", "parent_id" : null}, {"id" : "d8582c31-17da-4117-aa47-51eeec96ff0e", "name" : "居家", "name_en" : "Home", "name_pinyin" : null, "name_pinyin_abbr" : null, "icon" : "居家_cateic_jujia.png", "type" : "expense", "parent_id" : null}, {"id" : "2fa9f52b-14ba-4e01-8ae3-668282acda21", "name" : "居家", "name_en" : "Home", "name_pinyin" : null, "name_pinyin_abbr" : null, "icon" : "居家_cateic_jujia.png", "type" : "expense", "parent_id" : null}, {"id" : "8cf98fcf-dd56-4f26-a687-d6498e6e020d", "name" : "教育", "name_en" : "Education", "name_pinyin" : null, "name_pinyin_abbr" : null, "icon" : "教育_cateic_jiaoyu.png", "type" : "expense", "parent_id" : null}, {"id" : "4bc8943d-a617-4202-9c3c-f7d23cc0542f", "name" : "教育", "name_en" : "Education", "name_pinyin" : null, "name_pinyin_abbr" : null, "icon" : "教育_cateic_jiaoyu.png", "type" : "expense", "parent_id" : null}, {"id" : "d208c8f8-7e14-4e0c-ba65-d46a29d2b595", "name" : "教育", "name_en" : "Education", "name_pinyin" : null, "name_pinyin_abbr" : null, "icon" : "教育_cateic_jiaoyu.png", "type" : "expense", "parent_id" : null}, {"id" : "ebb9732b-3901-4da1-bb38-1ceea1743f1f", "name" : "三餐", "name_en" : "sancan", "name_pinyin" : "sancan", "name_pinyin_abbr" : "sc", "icon" : "三餐_cateic_yinshi.png", "type" : "expense", "parent_id" : null}, {"id" : "f1a78f47-3f62-4b75-9fb1-c19c8fc3c190", "name" : "交通", "name_en" : "jiaotong", "name_pinyin" : "jiaotong", "name_pinyin_abbr" : "jt", "icon" : "交通_cateic_jiaotong.png", "type" : "expense", "parent_id" : null}, {"id" : "94bde0ed-5978-4d7d-95f6-3862275724d4", "name" : "交通", "name_en" : "jiaotong", "name_pinyin" : "jiaotong", "name_pinyin_abbr" : "jt", "icon" : "交通_cateic_jiaotong.png", "type" : "expense", "parent_id" : null}, {"id" : "b6d07642-cdc4-4b4e-ac3c-d7f71cfc5e50", "name" : "公交", "name_en" : "gongjiao", "name_pinyin" : "gongjiao", "name_pinyin_abbr" : "gj", "icon" : "公交_ic_cate2_gongjiao.png", "type" : "expense", "parent_id" : null}, {"id" : "05266105-3b88-4b7f-9cfc-08c9a10ef446", "name" : "地铁", "name_en" : "ditie", "name_pinyin" : "ditie", "name_pinyin_abbr" : "dt", "icon" : "地铁_ic_cate2_ditie2.png", "type" : "expense", "parent_id" : null}, {"id" : "53db2427-dbec-4ec4-a2ec-09703a713817", "name" : "动车高铁", "name_en" : "dongchegaotie", "name_pinyin" : "dongchegaotie", "name_pinyin_abbr" : "dcgt", "icon" : "动车高铁_cateic_huoche.png", "type" : "expense", "parent_id" : null}, {"id" : "03ee4f85-3a96-4ae4-9bc1-c766eddcc7f1", "name" : "飞机", "name_en" : "feiji", "name_pinyin" : "feiji", "name_pinyin_abbr" : "fj", "icon" : "飞机_ic_cate2_feiji.png", "type" : "expense", "parent_id" : null}, {"id" : "2912e135-0729-4dcd-8aa2-94240f024a06", "name" : "打车", "name_en" : "dache", "name_pinyin" : "dache", "name_pinyin_abbr" : "dc", "icon" : "打车_ic_cate2_dache.png", "type" : "expense", "parent_id" : null}, {"id" : "2eb23120-4e93-401c-9fe4-1824eeb41555", "name" : "火车", "name_en" : "huoche", "name_pinyin" : "huoche", "name_pinyin_abbr" : "hc", "icon" : "火车_cateic_huoche.png", "type" : "expense", "parent_id" : null}, {"id" : "90699994-3a3e-4c1a-9992-fa25503162fe", "name" : "居家", "name_en" : "Home", "name_pinyin" : null, "name_pinyin_abbr" : null, "icon" : "居家_cateic_jujia.png", "type" : "expense", "parent_id" : null}, {"id" : "767a5436-87da-44ad-9070-5b5c5b8be9ff", "name" : "教育", "name_en" : "Education", "name_pinyin" : null, "name_pinyin_abbr" : null, "icon" : "教育_cateic_jiaoyu.png", "type" : "expense", "parent_id" : null}, {"id" : "e7806be8-e08a-49e7-843a-62b5ee8c1c71", "name" : "交通", "name_en" : "jiaotong", "name_pinyin" : "jiaotong", "name_pinyin_abbr" : "jt", "icon" : "交通_cateic_jiaotong.png", "type" : "expense", "parent_id" : null}, {"id" : "4fb2553b-d13e-43b5-b6f8-8af05dab1bdc", "name" : "居家", "name_en" : "Home", "name_pinyin" : null, "name_pinyin_abbr" : null, "icon" : "居家_cateic_jujia.png", "type" : "expense", "parent_id" : null}, {"id" : "16cba6e4-781f-40d5-be31-afe3016dd769", "name" : "居家", "name_en" : "Home", "name_pinyin" : null, "name_pinyin_abbr" : null, "icon" : "居家_cateic_jujia.png", "type" : "expense", "parent_id" : null}, {"id" : "1aa4b3ab-f40d-4373-8010-c7e9124e0ec7", "name" : "教育", "name_en" : "Education", "name_pinyin" : null, "name_pinyin_abbr" : null, "icon" : "教育_cateic_jiaoyu.png", "type" : "expense", "parent_id" : null}, {"id" : "6213e392-f0d2-41b7-9993-f766473cbaf0", "name" : "教育", "name_en" : "Education", "name_pinyin" : null, "name_pinyin_abbr" : null, "icon" : "教育_cateic_jiaoyu.png", "type" : "expense", "parent_id" : null}, {"id" : "0b102358-3715-42d8-b81e-4ba31f213a99", "name" : "交通", "name_en" : "jiaotong", "name_pinyin" : "jiaotong", "name_pinyin_abbr" : "jt", "icon" : "交通_cateic_jiaotong.png", "type" : "expense", "parent_id" : null}, {"id" : "7f20a946-54b0-4cd2-8850-9b0513b83974", "name" : "交通", "name_en" : "jiaotong", "name_pinyin" : "jiaotong", "name_pinyin_abbr" : "jt", "icon" : "交通_cateic_jiaotong.png", "type" : "expense", "parent_id" : null}, {"id" : "ae6ab182-1b6d-43bf-b8ed-9ddfaa42c614", "name" : "医疗", "name_en" : "yiliao", "name_pinyin" : "yiliao", "name_pinyin_abbr" : "yl", "icon" : "医疗_cateic_yiliao.png", "type" : "expense", "parent_id" : null}, {"id" : "793026d7-6f63-49ee-9e4c-945250bff441", "name" : "医疗", "name_en" : "yiliao", "name_pinyin" : "yiliao", "name_pinyin_abbr" : "yl", "icon" : "医疗_cateic_yiliao.png", "type" : "expense", "parent_id" : null}, {"id" : "20b12589-44ed-4249-a603-83193748b5a1", "name" : "医疗", "name_en" : "yiliao", "name_pinyin" : "yiliao", "name_pinyin_abbr" : "yl", "icon" : "医疗_cateic_yiliao.png", "type" : "expense", "parent_id" : null}, {"id" : "0c6fc954-ac65-49fb-8fcf-2def22b48ad0", "name" : "娱乐", "name_en" : "yule", "name_pinyin" : "yule", "name_pinyin_abbr" : "yl", "icon" : "娱乐_cateic_yule.png", "type" : "expense", "parent_id" : null}, {"id" : "8b093f26-6bd2-4949-b1e3-29b500ac16bb", "name" : "学习", "name_en" : "xuexi", "name_pinyin" : "xuexi", "name_pinyin_abbr" : "xx", "icon" : "学习_cateic_xuexi.png", "type" : "expense", "parent_id" : null}, {"id" : "a782eb68-3ee1-43d1-84e0-a62aa0e5cc76", "name" : "居家", "name_en" : "Home", "name_pinyin" : null, "name_pinyin_abbr" : null, "icon" : "居家_cateic_jujia.png", "type" : "expense", "parent_id" : null}, {"id" : "422ce131-0fdc-44c2-aa9a-1ac1a666b51c", "name" : "居家", "name_en" : "Home", "name_pinyin" : null, "name_pinyin_abbr" : null, "icon" : "居家_cateic_jujia.png", "type" : "expense", "parent_id" : null}, {"id" : "33cf281f-c687-44dc-b8f4-2eaa34a9e7a9", "name" : "教育", "name_en" : "Education", "name_pinyin" : null, "name_pinyin_abbr" : null, "icon" : "教育_cateic_jiaoyu.png", "type" : "expense", "parent_id" : null}, {"id" : "61df087d-8522-4330-9231-b63fccfda9ed", "name" : "教育", "name_en" : "Education", "name_pinyin" : null, "name_pinyin_abbr" : null, "icon" : "教育_cateic_jiaoyu.png", "type" : "expense", "parent_id" : null}, {"id" : "b1469dae-9d13-4219-a7e7-e9688b2763d3", "name" : "交通", "name_en" : "jiaotong", "name_pinyin" : "jiaotong", "name_pinyin_abbr" : "jt", "icon" : "交通_cateic_jiaotong.png", "type" : "expense", "parent_id" : null}, {"id" : "bfa41191-ee5b-4800-9687-83b9dc3a9279", "name" : "交通", "name_en" : "jiaotong", "name_pinyin" : "jiaotong", "name_pinyin_abbr" : "jt", "icon" : "交通_cateic_jiaotong.png", "type" : "expense", "parent_id" : null}, {"id" : "9574361f-7276-4e4b-99d5-5c4c40effeb4", "name" : "交通", "name_en" : "jiaotong", "name_pinyin" : "jiaotong", "name_pinyin_abbr" : "jt", "icon" : "交通_cateic_jiaotong.png", "type" : "expense", "parent_id" : null}, {"id" : "a576457c-9aa2-4dee-b985-0deb10ca99d5", "name" : "交通", "name_en" : "jiaotong", "name_pinyin" : "jiaotong", "name_pinyin_abbr" : "jt", "icon" : "交通_cateic_jiaotong.png", "type" : "expense", "parent_id" : null}, {"id" : "0d870621-0a47-4bde-9bd4-a2567e4aa958", "name" : "摩托车", "name_en" : "motuoche", "name_pinyin" : "motuoche", "name_pinyin_abbr" : "mtc", "icon" : "摩托车_cateic_motuo.png", "type" : "expense", "parent_id" : null}, {"id" : "63135a8a-cf22-4a5b-abfd-e8594db7a253", "name" : "轮船", "name_en" : "lunchuan", "name_pinyin" : "lunchuan", "name_pinyin_abbr" : "lc", "icon" : "轮船_cateic_lunchuan.png", "type" : "expense", "parent_id" : null}, {"id" : "b972699c-1aee-42ff-a368-70312acaf7fe", "name" : "自行车", "name_en" : "zixingche", "name_pinyin" : "zixingche", "name_pinyin_abbr" : "zxc", "icon" : "自行车_ic_cate2_zixingche.png", "type" : "expense", "parent_id" : null}, {"id" : "0f5d6c76-996a-48dc-89f0-8c02056a2bbc", "name" : "共享单车", "name_en" : "gongxiangdanche", "name_pinyin" : "gongxiangdanche", "name_pinyin_abbr" : "gxdc", "icon" : "共享单车_cateic_gongxiangdc.png", "type" : "expense", "parent_id" : null}, {"id" : "8ced982f-73d5-41fe-937d-df953d9609bb", "name" : "住宿", "name_en" : "zhusu", "name_pinyin" : "zhusu", "name_pinyin_abbr" : "zs", "icon" : "住宿_cateic3_jiudian.png", "type" : "expense", "parent_id" : null}, {"id" : "c8ba1e3a-e595-4d66-ba73-595ab8b0405b", "name" : "酒店", "name_en" : "jiudian", "name_pinyin" : "jiudian", "name_pinyin_abbr" : "jd", "icon" : "酒店_cateic3_jiudian.png", "type" : "expense", "parent_id" : null}, {"id" : "559b2b6f-d0e1-4b26-bf0e-98653a87b685", "name" : "房租", "name_en" : "fangzu", "name_pinyin" : "fangzu", "name_pinyin_abbr" : "fz", "icon" : "房租_ic_cate2_fangzu.png", "type" : "expense", "parent_id" : null}, {"id" : "9d6d026f-a372-464a-b305-c6aea2b1eeec", "name" : "住房", "name_en" : "zhufang", "name_pinyin" : "zhufang", "name_pinyin_abbr" : "zf", "icon" : "住房_cateic_zhufang.png", "type" : "expense", "parent_id" : null}, {"id" : "da99b0f0-cc48-4f23-9900-160ff7d591fb", "name" : "停车费", "name_en" : "tingchefei", "name_pinyin" : "tingchefei", "name_pinyin_abbr" : "tcf", "icon" : "停车费_ic_cate2_qichetingchefei.png", "type" : "expense", "parent_id" : null}, {"id" : "7228b2dc-3947-471c-8f2f-41f4883b4e99", "name" : "其它", "name_en" : "qita", "name_pinyin" : "qita", "name_pinyin_abbr" : "qt", "icon" : "其它_cateic_other.png", "type" : "expense", "parent_id" : null}, {"id" : "b697aa8b-5e63-4228-bc11-0103e75fdc27", "name" : "团费", "name_en" : "tuanfei", "name_pinyin" : "tuanfei", "name_pinyin_abbr" : "tf", "icon" : "团费_cateic_tuanfei.png", "type" : "expense", "parent_id" : null}, {"id" : "d10b4e41-19a7-4c39-aa74-e9b5930a720e", "name" : "捐赠", "name_en" : "juanzeng", "name_pinyin" : "juanzeng", "name_pinyin_abbr" : "jz", "icon" : "捐赠_ic_cate2_juanzeng.png", "type" : "expense", "parent_id" : null}, {"id" : "ebe2a3dc-111b-40a3-a6fe-d702f35017e3", "name" : "医疗", "name_en" : "yiliao", "name_pinyin" : "yiliao", "name_pinyin_abbr" : "yl", "icon" : "医疗_cateic_yiliao.png", "type" : "expense", "parent_id" : null}, {"id" : "f7e3cf26-4540-40a5-ab32-9d1a0a73e7fd", "name" : "医疗", "name_en" : "yiliao", "name_pinyin" : "yiliao", "name_pinyin_abbr" : "yl", "icon" : "医疗_cateic_yiliao.png", "type" : "expense", "parent_id" : null}, {"id" : "8430168f-8794-4f01-9142-3dda97c1f278", "name" : "医疗", "name_en" : "yiliao", "name_pinyin" : "yiliao", "name_pinyin_abbr" : "yl", "icon" : "医疗_cateic_yiliao.png", "type" : "expense", "parent_id" : null}, {"id" : "64c5d539-0048-4b2b-b835-b3097c3aed10", "name" : "医疗", "name_en" : "yiliao", "name_pinyin" : "yiliao", "name_pinyin_abbr" : "yl", "icon" : "医疗_cateic_yiliao.png", "type" : "expense", "parent_id" : null}, {"id" : "de96f30f-02cb-41d9-98b5-fabfc1d1cdde", "name" : "教育", "name_en" : "Education", "name_pinyin" : null, "name_pinyin_abbr" : null, "icon" : "教育_cateic_jiaoyu.png", "type" : "expense", "parent_id" : null}, {"id" : "a37460dd-941b-45e9-aa53-033388fa8a18", "name" : "居家", "name_en" : "Home", "name_pinyin" : null, "name_pinyin_abbr" : null, "icon" : "居家_cateic_jujia.png", "type" : "expense", "parent_id" : null}, {"id" : "e3c1e42c-8835-47f8-a9e6-08ed2ea00bf8", "name" : "医疗", "name_en" : "yiliao", "name_pinyin" : "yiliao", "name_pinyin_abbr" : "yl", "icon" : "医疗_cateic_yiliao.png", "type" : "expense", "parent_id" : null}, {"id" : "f3ce5d9b-fe79-4693-8741-df59d61b36cd", "name" : "医疗", "name_en" : "yiliao", "name_pinyin" : "yiliao", "name_pinyin_abbr" : "yl", "icon" : "医疗_cateic_yiliao.png", "type" : "expense", "parent_id" : null}, {"id" : "3d3cece2-fa4d-4d25-b52b-53283a1abe69", "name" : "医疗", "name_en" : "yiliao", "name_pinyin" : "yiliao", "name_pinyin_abbr" : "yl", "icon" : "医疗_cateic_yiliao.png", "type" : "expense", "parent_id" : null}, {"id" : "425675e3-0e5d-47b5-bafd-e3b0fcc14f13", "name" : "医疗", "name_en" : "yiliao", "name_pinyin" : "yiliao", "name_pinyin_abbr" : "yl", "icon" : "医疗_cateic_yiliao.png", "type" : "expense", "parent_id" : null}, {"id" : "45824931-997a-4dd2-aeb6-ad345a0be7dc", "name" : "卫浴", "name_en" : "weiyu", "name_pinyin" : "weiyu", "name_pinyin_abbr" : "wy", "icon" : "卫浴_cateic3_weiyu.png", "type" : "expense", "parent_id" : null}, {"id" : "0ce8166b-2430-4c9f-8fd8-d39a439c82d1", "name" : "厨房", "name_en" : "chufang", "name_pinyin" : "chufang", "name_pinyin_abbr" : "cf", "icon" : "厨房_cateic3_chufang.png", "type" : "expense", "parent_id" : null}, {"id" : "2dadb544-41b1-4d38-bebd-d882ad35edd2", "name" : "育儿", "name_en" : "yuer", "name_pinyin" : "yuer", "name_pinyin_abbr" : "ye", "icon" : "育儿_cateic_haizi.png", "type" : "expense", "parent_id" : null}, {"id" : "9a65579b-8c31-49ec-af3b-81d9c6632c44", "name" : "居家", "name_en" : "Home", "name_pinyin" : null, "name_pinyin_abbr" : null, "icon" : "居家_cateic_jujia.png", "type" : "expense", "parent_id" : null}, {"id" : "7437d55e-0bd4-45a8-a1e9-52e09b736e15", "name" : "居家", "name_en" : "Home", "name_pinyin" : null, "name_pinyin_abbr" : null, "icon" : "居家_cateic_jujia.png", "type" : "expense", "parent_id" : null}, {"id" : "2b6f7038-6c24-4274-8752-0ea21aeb73db", "name" : "教育", "name_en" : "Education", "name_pinyin" : null, "name_pinyin_abbr" : null, "icon" : "教育_cateic_jiaoyu.png", "type" : "expense", "parent_id" : null}, {"id" : "90ab1de9-4b27-4dae-a0f9-925ca002cc02", "name" : "交通", "name_en" : "jiaotong", "name_pinyin" : "jiaotong", "name_pinyin_abbr" : "jt", "icon" : "交通_cateic_jiaotong.png", "type" : "expense", "parent_id" : null}, {"id" : "64b4ca7c-636d-4f1a-97ae-563883db0d3a", "name" : "交通", "name_en" : "jiaotong", "name_pinyin" : "jiaotong", "name_pinyin_abbr" : "jt", "icon" : "交通_cateic_jiaotong.png", "type" : "expense", "parent_id" : null}, {"id" : "8db847eb-bb75-41e5-9052-e4243990ed65", "name" : "医疗", "name_en" : "yiliao", "name_pinyin" : "yiliao", "name_pinyin_abbr" : "yl", "icon" : "医疗_cateic_yiliao.png", "type" : "expense", "parent_id" : null}, {"id" : "d96c11ca-5bd5-49be-b13f-9be0ab6eae74", "name" : "发红包", "name_en" : "fahongbao", "name_pinyin" : "fahongbao", "name_pinyin_abbr" : "fhb", "icon" : "发红包_cateic_fahongbao.png", "type" : "expense", "parent_id" : null}, {"id" : "cebde51d-b3e6-4d3c-b6c0-63215acb2bc8", "name" : "吃喝", "name_en" : "chihe", "name_pinyin" : "chihe", "name_pinyin_abbr" : "ch", "icon" : "吃喝_cateic_yinshi.png", "type" : "expense", "parent_id" : null}, {"id" : "aca5bf73-f6cd-41f9-8cb1-c3199a2d9c04", "name" : "蜜雪冰城", "name_en" : "mixuebingcheng", "name_pinyin" : "mixuebingcheng", "name_pinyin_abbr" : "mxbc", "icon" : "蜜雪冰城_cate_mxbc.png", "type" : "expense", "parent_id" : null}, {"id" : "20a13e0f-e926-4afc-afb6-5cc45adfbd62", "name" : "烧烤", "name_en" : "shaokao", "name_pinyin" : "shaokao", "name_pinyin_abbr" : "sk", "icon" : "烧烤_cateic_shaokao.png", "type" : "expense", "parent_id" : null}, {"id" : "b49c8205-5c4d-4a58-83e5-c98d78ba40e4", "name" : "饮料", "name_en" : "yinliao", "name_pinyin" : "yinliao", "name_pinyin_abbr" : "yl", "icon" : "饮料_cateic_yinliao.png", "type" : "expense", "parent_id" : null}, {"id" : "2a827afc-6cff-4931-91ce-544911881f1b", "name" : "雪糕", "name_en" : "xuegao", "name_pinyin" : "xuegao", "name_pinyin_abbr" : "xg", "icon" : "雪糕_cate_xgao.png", "type" : "expense", "parent_id" : null}, {"id" : "e536ecc9-449f-49cd-ba46-a3b5e28b8710", "name" : "外卖", "name_en" : "waimai", "name_pinyin" : "waimai", "name_pinyin_abbr" : "wm", "icon" : "外卖_ic_cate2_waimai.png", "type" : "expense", "parent_id" : null}, {"id" : "cca8737b-7a3e-455a-8926-372bdbbd693c", "name" : "瑞幸", "name_en" : "ruixing", "name_pinyin" : "ruixing", "name_pinyin_abbr" : "rx", "icon" : "瑞幸_cate_ruixing.png", "type" : "expense", "parent_id" : null}, {"id" : "734e9f98-0df0-47d9-95a8-9c3827b457da", "name" : "星巴克", "name_en" : "xingbake", "name_pinyin" : "xingbake", "name_pinyin_abbr" : "xbk", "icon" : "星巴克_cate_xbk.png", "type" : "expense", "parent_id" : null}, {"id" : "3d2f4f98-0e20-4188-990c-deab8991142f", "name" : "火锅", "name_en" : "huoguo", "name_pinyin" : "huoguo", "name_pinyin_abbr" : "hg", "icon" : "火锅_cateic_huoguo.png", "type" : "expense", "parent_id" : null}, {"id" : "786309a9-e753-44ac-9bb2-6ad2964d7625", "name" : "零食", "name_en" : "lingshi", "name_pinyin" : "lingshi", "name_pinyin_abbr" : "ls", "icon" : "零食_cateic_lingshi.png", "type" : "expense", "parent_id" : null}, {"id" : "ba4b93f7-5ad3-4638-a52b-a60c3368161a", "name" : "地板瓷砖", "name_en" : "dibancizhuan", "name_pinyin" : "dibancizhuan", "name_pinyin_abbr" : "dbcz", "icon" : "地板瓷砖_cateic3_diban.png", "type" : "expense", "parent_id" : null}, {"id" : "99cf0325-33f7-4e2b-887d-1f741b024e84", "name" : "存储", "name_en" : "cunchu", "name_pinyin" : "cunchu", "name_pinyin_abbr" : "cc", "icon" : "存储_cateic_diannao.png", "type" : "expense", "parent_id" : null}, {"id" : "02a4392f-729e-4e9c-a989-45d25af9f690", "name" : "阿里88VIP", "name_en" : "ali88VIP", "name_pinyin" : "ali88VIP", "name_pinyin_abbr" : "al8", "icon" : "阿里88VIP_cateic_88vip2.png", "type" : "expense", "parent_id" : null}, {"id" : "7ffdf4bc-2189-4570-a690-ea03b295cb87", "name" : "QQ阅读", "name_en" : "QQyuedu", "name_pinyin" : "QQyuedu", "name_pinyin_abbr" : "Qyd", "icon" : "QQ阅读_cateic_qqyuedu.png", "type" : "expense", "parent_id" : null}, {"id" : "c46d74d2-21f8-44a3-8728-a7506dd0bc1e", "name" : "腾讯视频", "name_en" : "tengxunshipin", "name_pinyin" : "tengxunshipin", "name_pinyin_abbr" : "txsp", "icon" : "腾讯视频_cateic_tencenttv.png", "type" : "expense", "parent_id" : null}, {"id" : "e295709f-77f9-44d3-9eae-769a6058a053", "name" : "QQ音乐", "name_en" : "QQyinyue", "name_pinyin" : "QQyinyue", "name_pinyin_abbr" : "Qyy", "icon" : "QQ音乐_cateic_qqmusic.png", "type" : "expense", "parent_id" : null}, {"id" : "ebfbf627-e129-44c4-804b-0bb20502e441", "name" : "爱奇艺", "name_en" : "aiqiyi", "name_pinyin" : "aiqiyi", "name_pinyin_abbr" : "aqy", "icon" : "爱奇艺_cateic_iqiyi.png", "type" : "expense", "parent_id" : null}, {"id" : "51ea0340-262c-4bce-bedf-47b0da69a14c", "name" : "微信读书", "name_en" : "weixindushu", "name_pinyin" : "weixindushu", "name_pinyin_abbr" : "wxds", "icon" : "微信读书_cateic_weixindushu.png", "type" : "expense", "parent_id" : null}, {"id" : "ef0c38e7-ca8f-4dfa-a8e0-9bd034fd73f6", "name" : "CIBN互联", "name_en" : "CIBNhulian", "name_pinyin" : "CIBNhulian", "name_pinyin_abbr" : "Chl", "icon" : "CIBN互联_cateic_cibn.png", "type" : "expense", "parent_id" : null}, {"id" : "d44d58bc-f422-46b3-b7e8-fe0fdb4da287", "name" : "加速器", "name_en" : "jiasuqi", "name_pinyin" : "jiasuqi", "name_pinyin_abbr" : "jsq", "icon" : "加速器_cateic_tengxunjiasu.png", "type" : "expense", "parent_id" : null}, {"id" : "d672ddd8-ed57-42c2-9ca4-bc5347a80b17", "name" : "BiliBili", "name_en" : "BiliBili", "name_pinyin" : "BiliBili", "name_pinyin_abbr" : "B", "icon" : "BiliBili_cateic_bilibili.png", "type" : "expense", "parent_id" : null}, {"id" : "9a605ef7-cd4e-49b6-86d0-8b935da0c78c", "name" : "百度网盘", "name_en" : "baiduwangpan", "name_pinyin" : "baiduwangpan", "name_pinyin_abbr" : "bdwp", "icon" : "百度网盘_cateic_baiduyun.png", "type" : "expense", "parent_id" : null}, {"id" : "263f1c21-da25-4e9e-90a9-c690c6159196", "name" : "Apple Music", "name_en" : "Apple Music", "name_pinyin" : "Apple Music", "name_pinyin_abbr" : "A", "icon" : "Apple Music_cateic_applemusic.png", "type" : "expense", "parent_id" : null}, {"id" : "694be42f-9f7c-497f-a2d6-fe5981eb2990", "name" : "微博会员", "name_en" : "weibohuiyuan", "name_pinyin" : "weibohuiyuan", "name_pinyin_abbr" : "wbhy", "icon" : "微博会员_cateic_weibovip.png", "type" : "expense", "parent_id" : null}, {"id" : "c431341a-5884-43a0-86b1-6a0e2056b7d7", "name" : "护肤", "name_en" : "hufu", "name_pinyin" : "hufu", "name_pinyin_abbr" : "hf", "icon" : "护肤_cateic_meizhuang.png", "type" : "expense", "parent_id" : null}, {"id" : "94e74c09-7779-4d03-9635-2e02370093c6", "name" : "懒人听书", "name_en" : "lanrentingshu", "name_pinyin" : "lanrentingshu", "name_pinyin_abbr" : "lrts", "icon" : "懒人听书_cateic_dropbox.png", "type" : "expense", "parent_id" : null}, {"id" : "708f0e11-07a2-421d-89fa-b49520c2bd6c", "name" : "YouTube", "name_en" : "YouTube", "name_pinyin" : "YouTube", "name_pinyin_abbr" : "Y", "icon" : "YouTube_cateic_youtube.png", "type" : "expense", "parent_id" : null}, {"id" : "e22e5363-aaac-4a5a-9e54-4377a3a0afde", "name" : "Dropbox", "name_en" : "Dropbox", "name_pinyin" : "Dropbox", "name_pinyin_abbr" : "D", "icon" : "Dropbox_cateic_dropbox.png", "type" : "expense", "parent_id" : null}, {"id" : "bf59aa09-ce47-4206-a34c-4c124f82a5ca", "name" : "华为云空间", "name_en" : "huaweiyunkongjian", "name_pinyin" : "huaweiyunkongjian", "name_pinyin_abbr" : "hwykj", "icon" : "华为云空间_cateic_huaweiyun.png", "type" : "expense", "parent_id" : null}, {"id" : "b19e099d-02e7-4cca-a5fc-d53ed43eb9d2", "name" : "起点阅读", "name_en" : "qidianyuedu", "name_pinyin" : "qidianyuedu", "name_pinyin_abbr" : "qdyd", "icon" : "起点阅读_cateic_qidian.png", "type" : "expense", "parent_id" : null}, {"id" : "f602d649-968a-4c80-be02-75dd3f8d8d5b", "name" : "Apple", "name_en" : "Apple", "name_pinyin" : "Apple", "name_pinyin_abbr" : "A", "icon" : "Apple_cateic_applemusic.png", "type" : "expense", "parent_id" : null}, {"id" : "1e43bdae-6409-431f-8534-6cafed5f9686", "name" : "UU加速器", "name_en" : "UUjiasuqi", "name_pinyin" : "UUjiasuqi", "name_pinyin_abbr" : "Ujsq", "icon" : "UU加速器_cateic_uujiasuqi.png", "type" : "expense", "parent_id" : null}, {"id" : "a5d46158-a61b-467a-bf53-47d325117085", "name" : "晋江文学", "name_en" : "jinjiangwenxue", "name_pinyin" : "jinjiangwenxue", "name_pinyin_abbr" : "jjwx", "icon" : "晋江文学_cate_jjwx.png", "type" : "expense", "parent_id" : null}, {"id" : "565b852e-6ab4-4208-8b3a-9cb3ca11efd1", "name" : "知乎盐选", "name_en" : "zhihuyanxuan", "name_pinyin" : "zhihuyanxuan", "name_pinyin_abbr" : "zhyx", "icon" : "知乎盐选_cateic_zhihuvip.png", "type" : "expense", "parent_id" : null}, {"id" : "b4bdfa5f-10b8-4383-b372-ce4f097f5420", "name" : "就诊", "name_en" : "jiuzhen", "name_pinyin" : "jiuzhen", "name_pinyin_abbr" : "jz", "icon" : "就诊_ic_cate2_jiuzhen.png", "type" : "expense", "parent_id" : null}, {"id" : "fcff8d4b-1312-4319-871f-988544a84ad3", "name" : "旅游费用", "name_en" : "lvyoufeiyong", "name_pinyin" : "lvyoufeiyong", "name_pinyin_abbr" : "lyfy", "icon" : "旅游费用_cateic_gongzi.png", "type" : "expense", "parent_id" : null}, {"id" : "c63c383d-b249-42d3-aaf7-ee03876b2d52", "name" : "购买App", "name_en" : "goumaiApp", "name_pinyin" : "goumaiApp", "name_pinyin_abbr" : "gmA", "icon" : "购买App_ic_cate2_appgoumai.png", "type" : "expense", "parent_id" : null}, {"id" : "8241a9f1-94f3-4538-8999-196fc1d44354", "name" : "娱乐", "name_en" : "yule", "name_pinyin" : "yule", "name_pinyin_abbr" : "yl", "icon" : "娱乐_cateic_yule.png", "type" : "expense", "parent_id" : null}, {"id" : "d2137703-46a4-4644-bf28-9a6622f29ac3", "name" : "娱乐", "name_en" : "yule", "name_pinyin" : "yule", "name_pinyin_abbr" : "yl", "icon" : "娱乐_cateic_yule.png", "type" : "expense", "parent_id" : null}, {"id" : "2ed212b3-185a-4f0a-a2cb-d3ab39629404", "name" : "娱乐", "name_en" : "yule", "name_pinyin" : "yule", "name_pinyin_abbr" : "yl", "icon" : "娱乐_cateic_yule.png", "type" : "expense", "parent_id" : null}, {"id" : "3bdd68df-b8af-4d79-8991-ed0e5f5641d2", "name" : "娱乐", "name_en" : "yule", "name_pinyin" : "yule", "name_pinyin_abbr" : "yl", "icon" : "娱乐_cateic_yule.png", "type" : "expense", "parent_id" : null}, {"id" : "fcd82ae2-4d1f-4b5c-b14a-d353d3678888", "name" : "娱乐", "name_en" : "yule", "name_pinyin" : "yule", "name_pinyin_abbr" : "yl", "icon" : "娱乐_cateic_yule.png", "type" : "expense", "parent_id" : null}, {"id" : "b50ef146-4924-4114-80b1-411a42ec17b8", "name" : "娱乐", "name_en" : "yule", "name_pinyin" : "yule", "name_pinyin_abbr" : "yl", "icon" : "娱乐_cateic_yule.png", "type" : "expense", "parent_id" : null}, {"id" : "228309f8-cd32-451f-b80c-107ee347aaf5", "name" : "娱乐", "name_en" : "yule", "name_pinyin" : "yule", "name_pinyin_abbr" : "yl", "icon" : "娱乐_cateic_yule.png", "type" : "expense", "parent_id" : null}, {"id" : "83d7f597-2eb6-41b6-ae8e-60f8f37739f6", "name" : "娱乐", "name_en" : "yule", "name_pinyin" : "yule", "name_pinyin_abbr" : "yl", "icon" : "娱乐_cateic_yule.png", "type" : "expense", "parent_id" : null}, {"id" : "13cf3c76-1d5c-4fa2-a721-c75ca959f4ee", "name" : "娱乐", "name_en" : "yule", "name_pinyin" : "yule", "name_pinyin_abbr" : "yl", "icon" : "娱乐_cateic_yule.png", "type" : "expense", "parent_id" : null}, {"id" : "359c5da8-b6e0-4232-8d37-0c5c4a9d1be3", "name" : "娱乐", "name_en" : "yule", "name_pinyin" : "yule", "name_pinyin_abbr" : "yl", "icon" : "娱乐_cateic_yule.png", "type" : "expense", "parent_id" : null}, {"id" : "180fe8eb-81fe-4002-8531-fe1fb88c2286", "name" : "娱乐", "name_en" : "yule", "name_pinyin" : "yule", "name_pinyin_abbr" : "yl", "icon" : "娱乐_cateic_yule.png", "type" : "expense", "parent_id" : null}, {"id" : "92218d2c-b182-444a-95ea-493d39b9f7cb", "name" : "婚嫁随礼", "name_en" : "hunjiasuili", "name_pinyin" : "hunjiasuili", "name_pinyin_abbr" : "hjsl", "icon" : "婚嫁随礼_cateic3_hunjiasuili.png", "type" : "expense", "parent_id" : null}, {"id" : "414abe87-0d6f-4ff1-b455-c6153da9c4e6", "name" : "孩子", "name_en" : "haizi", "name_pinyin" : "haizi", "name_pinyin_abbr" : "hz", "icon" : "孩子_cateic_haizi.png", "type" : "expense", "parent_id" : null}, {"id" : "de408b69-63ab-4854-81a8-b8d0d2ccfebe", "name" : "宠物", "name_en" : "chongwu", "name_pinyin" : "chongwu", "name_pinyin_abbr" : "cw", "icon" : "宠物_cateic_pet.png", "type" : "expense", "parent_id" : null}, {"id" : "3ab7625a-ebaa-4581-b186-749b1f27b4ef", "name" : "宴请招待", "name_en" : "yanqingzhaodai", "name_pinyin" : "yanqingzhaodai", "name_pinyin_abbr" : "yqzd", "icon" : "宴请招待_cateic_qingke.png", "type" : "expense", "parent_id" : null}, {"id" : "75651e6a-2cbe-45a6-b934-188b8434a42d", "name" : "家具", "name_en" : "jiaju", "name_pinyin" : "jiaju", "name_pinyin_abbr" : "jj", "icon" : "家具_cateic3_jiaju.png", "type" : "expense", "parent_id" : null}, {"id" : "89505919-da98-4063-9b92-bbcc551a500a", "name" : "家电", "name_en" : "jiadian", "name_pinyin" : "jiadian", "name_pinyin_abbr" : "jd", "icon" : "家电_cateic3_jiadian.png", "type" : "expense", "parent_id" : null}, {"id" : "bebee365-58d4-49e8-b498-455869c45544", "name" : "寿辰", "name_en" : "shouchen", "name_pinyin" : "shouchen", "name_pinyin_abbr" : "sc", "icon" : "寿辰_cateic3_shengri.png", "type" : "expense", "parent_id" : null}, {"id" : "7ed4bf1d-3d00-4d82-826e-d558fb7e91f6", "name" : "插座", "name_en" : "chazuo", "name_pinyin" : "chazuo", "name_pinyin_abbr" : "cz", "icon" : "插座_cateic3_chazuo.png", "type" : "expense", "parent_id" : null}, {"id" : "dfff072e-b079-4562-9b5e-79421e09bb5c", "name" : "旅游装备", "name_en" : "lvyouzhuangbei", "name_pinyin" : "lvyouzhuangbei", "name_pinyin_abbr" : "lyzb", "icon" : "旅游装备_cateic3_zhuangbei2.png", "type" : "expense", "parent_id" : null}, {"id" : "bf537031-9599-4513-9e0b-cec241c479dd", "name" : "旅行", "name_en" : "lvxing", "name_pinyin" : "lvxing", "name_pinyin_abbr" : "lx", "icon" : "旅行_cateic_lvxing.png", "type" : "expense", "parent_id" : null}, {"id" : "77b9c5d6-b4e8-4e4f-ad86-e78d39aae34f", "name" : "日用品", "name_en" : "riyongpin", "name_pinyin" : "riyongpin", "name_pinyin_abbr" : "ryp", "icon" : "日用品_cateic_riyongpin.png", "type" : "expense", "parent_id" : null}, {"id" : "ad20dafd-bb05-4f47-9c08-f67de348dc41", "name" : "汽车/加油", "name_en" : "qiche/jiayou", "name_pinyin" : "qiche/jiayou", "name_pinyin_abbr" : "qc/jy", "icon" : "汽车_加油_cateic_jiayou.png", "type" : "expense", "parent_id" : null}, {"id" : "c9b4fe88-a7fc-4690-b288-d7d441c952a9", "name" : "油漆涂料", "name_en" : "youqituliao", "name_pinyin" : "youqituliao", "name_pinyin_abbr" : "yqtl", "icon" : "油漆涂料_cateic3_youqi.png", "type" : "expense", "parent_id" : null}, {"id" : "e14cabc1-8e4c-473b-9b77-038869304bac", "name" : "油费", "name_en" : "youfei", "name_pinyin" : "youfei", "name_pinyin_abbr" : "yf", "icon" : "油费_ic_cate2_qichejiayou.png", "type" : "expense", "parent_id" : null}, {"id" : "fcd219ab-ef28-4028-86ef-e8bf8bc2239e", "name" : "洗车", "name_en" : "xiche", "name_pinyin" : "xiche", "name_pinyin_abbr" : "xc", "icon" : "洗车_ic_cate2_qichexiche.png", "type" : "expense", "parent_id" : null}, {"id" : "9673fc49-2104-4d28-847e-e3dc47a87b87", "name" : "灯具", "name_en" : "dengju", "name_pinyin" : "dengju", "name_pinyin_abbr" : "dj", "icon" : "灯具_cateic3_dengju.png", "type" : "expense", "parent_id" : null}, {"id" : "def19506-feea-4f7b-8668-d76fab360803", "name" : "烟酒", "name_en" : "yanjiu", "name_pinyin" : "yanjiu", "name_pinyin_abbr" : "yj", "icon" : "烟酒_cateic_yanjiu.png", "type" : "expense", "parent_id" : null}, {"id" : "fd9a2039-1764-40a4-9b89-20587b5b02c8", "name" : "电器数码", "name_en" : "dianqishuma", "name_pinyin" : "dianqishuma", "name_pinyin_abbr" : "dqsm", "icon" : "电器数码_cateic_shuma.png", "type" : "expense", "parent_id" : null}, {"id" : "cd397343-1f86-4090-8255-89d155e0f707", "name" : "窗帘", "name_en" : "chuanglian", "name_pinyin" : "chuanglian", "name_pinyin_abbr" : "cl", "icon" : "窗帘_cateic3_chuanglian.png", "type" : "expense", "parent_id" : null}, {"id" : "87d8938f-015f-4d13-91ea-32503b2781ca", "name" : "线路改造", "name_en" : "xianlugaizao", "name_pinyin" : "xianlugaizao", "name_pinyin_abbr" : "xlgz", "icon" : "线路改造_cateic3_xianlugaizao.png", "type" : "expense", "parent_id" : null}, {"id" : "b7ac8d2b-552b-4e66-aa73-b2c45c337840", "name" : "维修保养", "name_en" : "weixiubaoyang", "name_pinyin" : "weixiubaoyang", "name_pinyin_abbr" : "wxby", "icon" : "维修保养_ic_cate2_qicheweixiu.png", "type" : "expense", "parent_id" : null}, {"id" : "a12abb39-96c6-4aaa-b584-3b09b47fe39a", "name" : "美妆", "name_en" : "meizhuang", "name_pinyin" : "meizhuang", "name_pinyin_abbr" : "mz", "icon" : "美妆_cateic_meizhuang.png", "type" : "expense", "parent_id" : null}, {"id" : "c9069705-4d47-40bb-9ddf-ac25fb36b650", "name" : "衣服", "name_en" : "yifu", "name_pinyin" : "yifu", "name_pinyin_abbr" : "yf", "icon" : "衣服_cateic_yifu.png", "type" : "expense", "parent_id" : null}, {"id" : "52db47a6-2218-4ac5-bc19-4668fbe94058", "name" : "装饰物品", "name_en" : "zhuangshiwupin", "name_pinyin" : "zhuangshiwupin", "name_pinyin_abbr" : "zswp", "icon" : "装饰物品_cateic3_zhuangshi.png", "type" : "expense", "parent_id" : null}, {"id" : "fd1b113f-8a4d-47c2-a51d-ce5a67654a87", "name" : "设计费", "name_en" : "shejifei", "name_pinyin" : "shejifei", "name_pinyin_abbr" : "sjf", "icon" : "设计费_cateic3_sheji.png", "type" : "expense", "parent_id" : null}, {"id" : "8b704114-5c61-4849-8b51-9b3f657b9b51", "name" : "话费网费", "name_en" : "huafeiwangfei", "name_pinyin" : "huafeiwangfei", "name_pinyin_abbr" : "hfwf", "icon" : "话费网费_cateic_dianhua.png", "type" : "expense", "parent_id" : null}, {"id" : "27a4d673-c1ac-4eae-9c03-485490c5f302", "name" : "请客送礼", "name_en" : "qingkesongli", "name_pinyin" : "qingkesongli", "name_pinyin_abbr" : "qksl", "icon" : "请客送礼_cateic_qingke.png", "type" : "expense", "parent_id" : null}, {"id" : "a66db9ea-bb41-4ff1-beb8-784f85fa2273", "name" : "购车款", "name_en" : "gouchekuan", "name_pinyin" : "gouchekuan", "name_pinyin_abbr" : "gck", "icon" : "购车款_ic_cate2_qichegoumai.png", "type" : "expense", "parent_id" : null}, {"id" : "a7cc87ce-f8aa-4f66-a952-5e3382f35ff6", "name" : "车检", "name_en" : "chejian", "name_pinyin" : "chejian", "name_pinyin_abbr" : "cj", "icon" : "车检_ic_cate2_qichechejian.png", "type" : "expense", "parent_id" : null}, {"id" : "f2c47a4a-76af-4bbd-93c9-6ddaf8156efa", "name" : "车贷", "name_en" : "chedai", "name_pinyin" : "chedai", "name_pinyin_abbr" : "cd", "icon" : "车贷_ic_cate2_qichechedai.png", "type" : "expense", "parent_id" : null}, {"id" : "c9a3014e-2a0a-44fb-b96c-8d5c432e50d3", "name" : "车险", "name_en" : "chexian", "name_pinyin" : "chexian", "name_pinyin_abbr" : "cx", "icon" : "车险_ic_cate2_qichebaoxian.png", "type" : "expense", "parent_id" : null}, {"id" : "4206ad1b-8eb0-40a7-8e6d-e54aa80e1092", "name" : "辅助材料", "name_en" : "fuzhucailiao", "name_pinyin" : "fuzhucailiao", "name_pinyin_abbr" : "fzcl", "icon" : "辅助材料_cateic3_cailiao.png", "type" : "expense", "parent_id" : null}, {"id" : "5b7075d9-31d8-442d-ac9c-842f485366c6", "name" : "过路费", "name_en" : "guolufei", "name_pinyin" : "guolufei", "name_pinyin_abbr" : "glf", "icon" : "过路费_ic_cate2_qicheguolufei.png", "type" : "expense", "parent_id" : null}, {"id" : "f2e8ba55-8ee5-4fe2-88e3-9a29b752aec7", "name" : "运动", "name_en" : "yundong", "name_pinyin" : "yundong", "name_pinyin_abbr" : "yd", "icon" : "运动_cateic_yundong.png", "type" : "expense", "parent_id" : null}, {"id" : "2f1aa307-510d-4683-b523-ce4d6ebe1f42", "name" : "违章", "name_en" : "weizhang", "name_pinyin" : "weizhang", "name_pinyin_abbr" : "wz", "icon" : "违章_ic_cate2_qichefakuan.png", "type" : "expense", "parent_id" : null}, {"id" : "db575a9f-0ecc-4ce4-bfb2-a44b75543bb6", "name" : "送礼", "name_en" : "songli", "name_pinyin" : "songli", "name_pinyin_abbr" : "sl", "icon" : "送礼_cateic3_liwu.png", "type" : "expense", "parent_id" : null}, {"id" : "11bf0695-c274-4f79-b368-ec7cd73059bb", "name" : "配件", "name_en" : "peijian", "name_pinyin" : "peijian", "name_pinyin_abbr" : "pj", "icon" : "配件_ic_cate2_qichepeijian.png", "type" : "expense", "parent_id" : null}, {"id" : "7bfcc204-1966-49f7-91f2-8e99009bbb7d", "name" : "酒店住宿", "name_en" : "jiudianzhusu", "name_pinyin" : "jiudianzhusu", "name_pinyin_abbr" : "jdzs", "icon" : "酒店住宿_cateic3_jiudian.png", "type" : "expense", "parent_id" : null}, {"id" : "be90c224-befc-4ca3-bde8-0974e0a29f69", "name" : "门票", "name_en" : "menpiao", "name_pinyin" : "menpiao", "name_pinyin_abbr" : "mp", "icon" : "门票_ic_cate2_menpiao.png", "type" : "expense", "parent_id" : null}, {"id" : "da4aa1af-e1c0-4b43-b332-fe2f58576847", "name" : "打赏", "name_en" : "dashang", "name_pinyin" : "dashang", "name_pinyin_abbr" : "ds", "icon" : "打赏_ic_cate2_dashang.png", "type" : "expense", "parent_id" : null}, {"id" : "643e4f88-a521-4bc2-b605-31960f22c0eb", "name" : "展览", "name_en" : "zhanlan", "name_pinyin" : "zhanlan", "name_pinyin_abbr" : "zl", "icon" : "展览_cateic_zhanlan.png", "type" : "expense", "parent_id" : null}, {"id" : "de17b92b-1f92-4ecf-a04a-fae6e0a8cfe1", "name" : "景区门票", "name_en" : "jingqumenpiao", "name_pinyin" : "jingqumenpiao", "name_pinyin_abbr" : "jqmp", "icon" : "景区门票_ic_cate2_menpiao.png", "type" : "expense", "parent_id" : null}, {"id" : "9b1c11cf-3418-4d92-9896-dd2605080920", "name" : "门窗", "name_en" : "menchuang", "name_pinyin" : "menchuang", "name_pinyin_abbr" : "mc", "icon" : "门窗_cateic3_menchuang.png", "type" : "expense", "parent_id" : null}, {"id" : "b425619b-3e12-4c3c-8171-b9ce603497a4", "name" : "餐饮", "name_en" : "canyin", "name_pinyin" : "canyin", "name_pinyin_abbr" : "cy", "icon" : "餐饮_ic_cate2_wucan.png", "type" : "expense", "parent_id" : null}, {"id" : "78c6f401-ef76-4ecc-bc7f-09bbcc370a23", "name" : "餐饮", "name_en" : "canyin", "name_pinyin" : "canyin", "name_pinyin_abbr" : "cy", "icon" : "餐饮_ic_cate2_wucan.png", "type" : "expense", "parent_id" : null}, {"id" : "6272eeb5-c419-4951-a7c5-eac77efe4286", "name" : "餐饮", "name_en" : "canyin", "name_pinyin" : "canyin", "name_pinyin_abbr" : "cy", "icon" : "餐饮_ic_cate2_wucan.png", "type" : "expense", "parent_id" : null}, {"id" : "2b2019ca-496f-44ca-94cc-43b7587233a2", "name" : "餐饮", "name_en" : "canyin", "name_pinyin" : "canyin", "name_pinyin_abbr" : "cy", "icon" : "餐饮_ic_cate2_wucan.png", "type" : "expense", "parent_id" : null}, {"id" : "3858f7af-9782-41c1-a991-065d73a9f339", "name" : "餐饮", "name_en" : "canyin", "name_pinyin" : "canyin", "name_pinyin_abbr" : "cy", "icon" : "餐饮_ic_cate2_wucan.png", "type" : "expense", "parent_id" : null}, {"id" : "553a6fc8-aba1-45ab-a064-a0b2c52fdda1", "name" : "餐饮", "name_en" : "canyin", "name_pinyin" : "canyin", "name_pinyin_abbr" : "cy", "icon" : "餐饮_ic_cate2_wucan.png", "type" : "expense", "parent_id" : null}, {"id" : "6fef0fa5-5eeb-4490-b56a-36ea50354c53", "name" : "餐饮", "name_en" : "canyin", "name_pinyin" : "canyin", "name_pinyin_abbr" : "cy", "icon" : "餐饮_ic_cate2_wucan.png", "type" : "expense", "parent_id" : null}, {"id" : "d1560e8d-0c22-4e12-a26e-f48f8d5a2326", "name" : "餐饮", "name_en" : "canyin", "name_pinyin" : "canyin", "name_pinyin_abbr" : "cy", "icon" : "餐饮_ic_cate2_wucan.png", "type" : "expense", "parent_id" : null}, {"id" : "f30b10c7-62c2-42cc-8c43-3170ab283134", "name" : "餐饮", "name_en" : "canyin", "name_pinyin" : "canyin", "name_pinyin_abbr" : "cy", "icon" : "餐饮_ic_cate2_wucan.png", "type" : "expense", "parent_id" : null}, {"id" : "1215865c-aace-4c9e-a036-d9e939cd2a1d", "name" : "餐饮", "name_en" : "canyin", "name_pinyin" : "canyin", "name_pinyin_abbr" : "cy", "icon" : "餐饮_ic_cate2_wucan.png", "type" : "expense", "parent_id" : null}, {"id" : "7ddfeb30-ea11-42b2-80e0-9fe08d50bbb1", "name" : "餐饮", "name_en" : "canyin", "name_pinyin" : "canyin", "name_pinyin_abbr" : "cy", "icon" : "餐饮_ic_cate2_wucan.png", "type" : "expense", "parent_id" : null}, {"id" : "dfa68a26-2fc2-45bb-ae2d-528b7e75f878", "name" : "餐饮", "name_en" : "canyin", "name_pinyin" : "canyin", "name_pinyin_abbr" : "cy", "icon" : "餐饮_ic_cate2_wucan.png", "type" : "expense", "parent_id" : null}, {"id" : "6ea6c3a8-f7a6-4e40-8387-08d4ba5fddb7", "name" : "哈根达斯", "name_en" : "hagendasi", "name_pinyin" : "hagendasi", "name_pinyin_abbr" : "hgds", "icon" : "哈根达斯_cate_xgao.png", "type" : "expense", "parent_id" : null}, {"id" : "40686b7d-4953-4b26-8475-6c330d8dc5bd", "name" : "喜茶", "name_en" : "xicha", "name_pinyin" : "xicha", "name_pinyin_abbr" : "xc", "icon" : "喜茶_cateic_cha.png", "type" : "expense", "parent_id" : null}, {"id" : "48a595e1-74b9-4575-9e99-e3f490f84890", "name" : "外食", "name_en" : "waishi", "name_pinyin" : "waishi", "name_pinyin_abbr" : "ws", "icon" : "外食_cateic_yinshi.png", "type" : "expense", "parent_id" : null}, {"id" : "9ea46d5c-98aa-4fe9-bf62-c57aff94d56f", "name" : "聚会", "name_en" : "juhui", "name_pinyin" : "juhui", "name_pinyin_abbr" : "jh", "icon" : "聚会_ic_cate2_juhui.png", "type" : "expense", "parent_id" : null}, {"id" : "83e237a2-381f-4f4f-a58d-f7e36f55c370", "name" : "夜宵", "name_en" : "yexiao", "name_pinyin" : "yexiao", "name_pinyin_abbr" : "yx", "icon" : "夜宵_ic_cate2_yexiao.png", "type" : "expense", "parent_id" : null}, {"id" : "0d865eec-5632-447c-80a7-48c4d6f94e6d", "name" : "水果", "name_en" : "shuiguo", "name_pinyin" : "shuiguo", "name_pinyin_abbr" : "sg", "icon" : "水果_cate_shuiguo.png", "type" : "expense", "parent_id" : null}, {"id" : "1030222a-20a2-4846-80e0-2a790ca70b2f", "name" : "代驾", "name_en" : "daijia", "name_pinyin" : "daijia", "name_pinyin_abbr" : "dj", "icon" : "代驾_cateic3_rengong.png", "type" : "expense", "parent_id" : null}, {"id" : "b1a8b3eb-10fd-4f84-892a-01d0ce850b7e", "name" : "投资", "name_en" : "touzi", "name_pinyin" : "touzi", "name_pinyin_abbr" : "tz", "icon" : "投资_cateic_gupiao.png", "type" : "income", "parent_id" : null}, {"id" : "eaebd3c1-fb54-47b1-81a0-93db2f137d1d", "name" : "投资", "name_en" : "touzi", "name_pinyin" : "touzi", "name_pinyin_abbr" : "tz", "icon" : "投资_cateic_gupiao.png", "type" : "income", "parent_id" : null}, {"id" : "267c01dc-2419-4245-9ddc-80832ca95277", "name" : "投资", "name_en" : "touzi", "name_pinyin" : "touzi", "name_pinyin_abbr" : "tz", "icon" : "投资_cateic_gupiao.png", "type" : "income", "parent_id" : null}, {"id" : "99194702-b2d1-44f8-bc42-911360389ef6", "name" : "投资", "name_en" : "touzi", "name_pinyin" : "touzi", "name_pinyin_abbr" : "tz", "icon" : "投资_cateic_gupiao.png", "type" : "income", "parent_id" : null}, {"id" : "c0475093-0156-43ca-974a-c69397b7dcd3", "name" : "投资", "name_en" : "touzi", "name_pinyin" : "touzi", "name_pinyin_abbr" : "tz", "icon" : "投资_cateic_gupiao.png", "type" : "income", "parent_id" : null}, {"id" : "378f797c-513d-4ee0-aeb5-439327becdb8", "name" : "投资", "name_en" : "touzi", "name_pinyin" : "touzi", "name_pinyin_abbr" : "tz", "icon" : "投资_cateic_gupiao.png", "type" : "income", "parent_id" : null}, {"id" : "f07d59da-7d1c-44df-9f87-54ee4cfcf66f", "name" : "投资", "name_en" : "touzi", "name_pinyin" : "touzi", "name_pinyin_abbr" : "tz", "icon" : "投资_cateic_gupiao.png", "type" : "income", "parent_id" : null}, {"id" : "e927d1e8-bf3d-47fc-b368-9b357c6e2fdc", "name" : "投资", "name_en" : "touzi", "name_pinyin" : "touzi", "name_pinyin_abbr" : "tz", "icon" : "投资_cateic_gupiao.png", "type" : "income", "parent_id" : null}, {"id" : "7f4e663e-36c4-4c1d-a5ca-44f97c7ac4c8", "name" : "投资", "name_en" : "touzi", "name_pinyin" : "touzi", "name_pinyin_abbr" : "tz", "icon" : "投资_cateic_gupiao.png", "type" : "income", "parent_id" : null}, {"id" : "cea32613-dbee-4b63-8a08-7c0d002a1650", "name" : "投资", "name_en" : "touzi", "name_pinyin" : "touzi", "name_pinyin_abbr" : "tz", "icon" : "投资_cateic_gupiao.png", "type" : "income", "parent_id" : null}, {"id" : "38b2d0e7-159c-4cc5-99b5-ec2b8d3b7227", "name" : "投资", "name_en" : "touzi", "name_pinyin" : "touzi", "name_pinyin_abbr" : "tz", "icon" : "投资_cateic_gupiao.png", "type" : "income", "parent_id" : null}, {"id" : "01dc5c1c-897f-430b-b137-a62140ac223d", "name" : "投资", "name_en" : "touzi", "name_pinyin" : "touzi", "name_pinyin_abbr" : "tz", "icon" : "投资_cateic_gupiao.png", "type" : "income", "parent_id" : null}, {"id" : "40b4c793-a76b-48f9-a0b3-8729a48947a5", "name" : "伙食费", "name_en" : "huoshifei", "name_pinyin" : "huoshifei", "name_pinyin_abbr" : "hsf", "icon" : "伙食费_cate_mian.png", "type" : "expense", "parent_id" : null}, {"id" : "8da7d04e-53af-4913-ac1b-06f8a6282192", "name" : "儿童手表", "name_en" : "ertongshoubiao", "name_pinyin" : "ertongshoubiao", "name_pinyin_abbr" : "etsb", "icon" : "儿童手表_cate_watch.png", "type" : "expense", "parent_id" : null}, {"id" : "06aa9323-5b78-47ca-8b8c-c7220fd59d6b", "name" : "护具", "name_en" : "huju", "name_pinyin" : "huju", "name_pinyin_abbr" : "hj", "icon" : "护具_cateic_jianshenqicai.png", "type" : "expense", "parent_id" : null}, {"id" : "5b12665c-4150-4b57-bb1c-e8c164bcbb78", "name" : "活动", "name_en" : "huodong", "name_pinyin" : "huodong", "name_pinyin_abbr" : "hd", "icon" : "活动_cateic_yundong.png", "type" : "expense", "parent_id" : null}, {"id" : "194c87ec-ad1a-4318-912f-b47cdd28c587", "name" : "疫苗", "name_en" : "yimiao", "name_pinyin" : "yimiao", "name_pinyin_abbr" : "ym", "icon" : "疫苗_cate_vaccine.png", "type" : "expense", "parent_id" : null}, {"id" : "378dcb4e-b515-4e4a-be7b-d69cde46704e", "name" : "零花钱", "name_en" : "linghuaqian", "name_pinyin" : "linghuaqian", "name_pinyin_abbr" : "lhq", "icon" : "零花钱_ic_cate2_linghuaqian.png", "type" : "expense", "parent_id" : null}, {"id" : "522e4df4-8da8-42c6-ad69-ea700349e2cf", "name" : "学费", "name_en" : "xuefei", "name_pinyin" : "xuefei", "name_pinyin_abbr" : "xf", "icon" : "学费_cateic_xuexi.png", "type" : "expense", "parent_id" : null}, {"id" : "b1c793fb-628a-4e86-947a-1ada416ee775", "name" : "纸尿裤", "name_en" : "zhiniaoku", "name_pinyin" : "zhiniaoku", "name_pinyin_abbr" : "znk", "icon" : "纸尿裤_cateic_zhiniaoku.png", "type" : "expense", "parent_id" : null}, {"id" : "a12cce89-ed52-4a7e-a65e-31b5a5fefd44", "name" : "培训", "name_en" : "peixun", "name_pinyin" : "peixun", "name_pinyin_abbr" : "px", "icon" : "培训_cateic_peixun.png", "type" : "expense", "parent_id" : null}, {"id" : "8941a73a-715b-4411-a715-ba96f27d665d", "name" : "文具", "name_en" : "wenju", "name_pinyin" : "wenju", "name_pinyin_abbr" : "wj", "icon" : "文具_cateic_wenju.png", "type" : "expense", "parent_id" : null}, {"id" : "9681e5db-6c01-4aa4-a094-b42959436c06", "name" : "辅食", "name_en" : "fushi", "name_pinyin" : "fushi", "name_pinyin_abbr" : "fs", "icon" : "辅食_cateic_fushi.png", "type" : "expense", "parent_id" : null}, {"id" : "f4329698-5097-43a9-8443-3c1091723687", "name" : "奶粉", "name_en" : "naifen", "name_pinyin" : "naifen", "name_pinyin_abbr" : "nf", "icon" : "奶粉_cateic_naifen.png", "type" : "expense", "parent_id" : null}, {"id" : "0decac36-e81a-45bf-81d7-2b2913b14b37", "name" : "课程", "name_en" : "kecheng", "name_pinyin" : "kecheng", "name_pinyin_abbr" : "kc", "icon" : "课程_cate_kecheng.png", "type" : "expense", "parent_id" : null}, {"id" : "aef74da1-af5a-485d-ab57-c9cefc4f3a52", "name" : "早教", "name_en" : "zaojiao", "name_pinyin" : "zaojiao", "name_pinyin_abbr" : "zj", "icon" : "早教_cateic_zaojiao.png", "type" : "expense", "parent_id" : null}, {"id" : "cbc2d6cb-e014-4e91-9f75-a32899d2bc3a", "name" : "产检", "name_en" : "chanjian", "name_pinyin" : "chanjian", "name_pinyin_abbr" : "cj", "icon" : "产检_cate_chanjian.png", "type" : "expense", "parent_id" : null}, {"id" : "fd65f362-3a5e-4162-a1ce-53e4a3e73612", "name" : "玩具", "name_en" : "wanju", "name_pinyin" : "wanju", "name_pinyin_abbr" : "wj", "icon" : "玩具_cateic_wanju.png", "type" : "expense", "parent_id" : null}, {"id" : "148d96b0-4530-4d50-ace5-04bd34784b9e", "name" : "月嫂", "name_en" : "yuesao", "name_pinyin" : "yuesao", "name_pinyin_abbr" : "ys", "icon" : "月嫂_cate_yuesao.png", "type" : "expense", "parent_id" : null}, {"id" : "174a873b-3961-47a3-9b30-f5fecbd42186", "name" : "鲜花", "name_en" : "xianhua", "name_pinyin" : "xianhua", "name_pinyin_abbr" : "xh", "icon" : "鲜花_cate_hua.png", "type" : "expense", "parent_id" : null}, {"id" : "170c8f80-ed87-4e7f-afab-33d5741d0510", "name" : "K歌", "name_en" : "Kge", "name_pinyin" : "Kge", "name_pinyin_abbr" : "Kg", "icon" : "K歌_ic_cate2_kge.png", "type" : "expense", "parent_id" : null}, {"id" : "762e3191-96cd-44fd-b88d-1e8916bca9d3", "name" : "电影", "name_en" : "dianying", "name_pinyin" : "dianying", "name_pinyin_abbr" : "dy", "icon" : "电影_ic_cate2_dianying.png", "type" : "expense", "parent_id" : null}, {"id" : "c3ef7e50-89bf-4372-ace8-0d8415fc87ca", "name" : "数码", "name_en" : "shuma", "name_pinyin" : "shuma", "name_pinyin_abbr" : "sm", "icon" : "数码_cateic_shuma.png", "type" : "expense", "parent_id" : null}, {"id" : "cd06b17b-276c-4b34-b2ea-11f3d5e5f7de", "name" : "上保险", "name_en" : "shangbaoxian", "name_pinyin" : "shangbaoxian", "name_pinyin_abbr" : "sbx", "icon" : "上保险_ic_cate2_apphuiyuan.png", "type" : "expense", "parent_id" : null}, {"id" : "eaaff1d8-75aa-4433-87f3-21f785c337b4", "name" : "手机", "name_en" : "shouji", "name_pinyin" : "shouji", "name_pinyin_abbr" : "sj", "icon" : "手机_ic_cate2_shouij.png", "type" : "expense", "parent_id" : null}, {"id" : "90256a4b-0b85-46f4-b39e-f05fe0925944", "name" : "电子产品", "name_en" : "dianzichanpin", "name_pinyin" : "dianzichanpin", "name_pinyin_abbr" : "dzcp", "icon" : "电子产品_cateic_shuma.png", "type" : "expense", "parent_id" : null}, {"id" : "77289ab8-d2d3-4c0b-837e-7ec0ef461e8e", "name" : "维修", "name_en" : "weixiu", "name_pinyin" : "weixiu", "name_pinyin_abbr" : "wx", "icon" : "维修_cateic_chongdianbao.png", "type" : "expense", "parent_id" : null}, {"id" : "e6b769e7-14e0-4169-b90f-2ea628322b95", "name" : "网络", "name_en" : "wangluo", "name_pinyin" : "wangluo", "name_pinyin_abbr" : "wl", "icon" : "网络_cateic_tencentcloud.png", "type" : "expense", "parent_id" : null}, {"id" : "3265a469-d1c6-462c-affe-e9c70599a24b", "name" : "数码配件", "name_en" : "shumapeijian", "name_pinyin" : "shumapeijian", "name_pinyin_abbr" : "smpj", "icon" : "数码配件_ic_cate2_shouijpeijian.png", "type" : "expense", "parent_id" : null}, {"id" : "c1f5db71-3fa4-4799-af6f-9ff5a4bce9b1", "name" : "App", "name_en" : "App", "name_pinyin" : "App", "name_pinyin_abbr" : "A", "icon" : "App_ic_cate2_appgoumai.png", "type" : "expense", "parent_id" : null}, {"id" : "3762841c-a6f9-4321-b92f-c6469af42941", "name" : "缴税", "name_en" : "jiaoshui", "name_pinyin" : "jiaoshui", "name_pinyin_abbr" : "js", "icon" : "缴税_cate_guanshui.png", "type" : "expense", "parent_id" : null}, {"id" : "cbc5464c-04d9-434d-9115-21f23935d0a2", "name" : "居家工具", "name_en" : "jujiagongju", "name_pinyin" : "jujiagongju", "name_pinyin_abbr" : "jjgj", "icon" : "居家工具_cate_tool.png", "type" : "expense", "parent_id" : null}, {"id" : "fc70cfb8-7f3e-4d0d-be48-b8f0e71f6760", "name" : "有线电视", "name_en" : "youxiandianshi", "name_pinyin" : "youxiandianshi", "name_pinyin_abbr" : "yxds", "icon" : "有线电视_ic_cate2_dianqi.png", "type" : "expense", "parent_id" : null}, {"id" : "412bdf22-561f-4ad0-8754-79eb04e25982", "name" : "水费", "name_en" : "shuifei", "name_pinyin" : "shuifei", "name_pinyin_abbr" : "sf", "icon" : "水费_ic_cate2_shuidianmei.png", "type" : "expense", "parent_id" : null}, {"id" : "14c72769-1097-4825-8a38-d3a09b6ed2e5", "name" : "清洁", "name_en" : "qingjie", "name_pinyin" : "qingjie", "name_pinyin_abbr" : "qj", "icon" : "清洁_ic_cate3_qingjie.png", "type" : "expense", "parent_id" : null}, {"id" : "0ca50e60-c047-43bf-b56b-f97950bd9e51", "name" : "电费", "name_en" : "dianfei", "name_pinyin" : "dianfei", "name_pinyin_abbr" : "df", "icon" : "电费_ic_cate2_shuidianmei.png", "type" : "expense", "parent_id" : null}, {"id" : "eb8589cc-60e9-4c27-83f9-e3d1d779527f", "name" : "话费", "name_en" : "huafei", "name_pinyin" : "huafei", "name_pinyin_abbr" : "hf", "icon" : "话费_cateic_dianhua.png", "type" : "expense", "parent_id" : null}, {"id" : "89c8e7dc-1bff-452e-b178-7b19a94f639b", "name" : "燃气", "name_en" : "ranqi", "name_pinyin" : "ranqi", "name_pinyin_abbr" : "rq", "icon" : "燃气_cateic_ranqi.png", "type" : "expense", "parent_id" : null}, {"id" : "fdb72ab4-4956-403d-bafc-4e0bddc7cf9e", "name" : "快递", "name_en" : "kuaidi", "name_pinyin" : "kuaidi", "name_pinyin_abbr" : "kd", "icon" : "快递_ic_cate2_kuaidi.png", "type" : "expense", "parent_id" : null}, {"id" : "85db0111-e986-4688-b1e0-6df8b955668b", "name" : "物业费", "name_en" : "wuyefei", "name_pinyin" : "wuyefei", "name_pinyin_abbr" : "wyf", "icon" : "物业费_cate_wyf.png", "type" : "expense", "parent_id" : null}, {"id" : "e6f15fb8-d78c-4ca0-b75f-d0670cafce30", "name" : "取暖费", "name_en" : "qunuanfei", "name_pinyin" : "qunuanfei", "name_pinyin_abbr" : "qnf", "icon" : "取暖费_cateic_qunuan.png", "type" : "expense", "parent_id" : null}, {"id" : "2f69f67b-b4b1-42c1-a073-cf1c3b4d28db", "name" : "宽带", "name_en" : "kuandai", "name_pinyin" : "kuandai", "name_pinyin_abbr" : "kd", "icon" : "宽带_cateic_wangluo.png", "type" : "expense", "parent_id" : null}, {"id" : "9348fd4e-8e16-424d-b221-ae26c5b17f2b", "name" : "Keep", "name_en" : "Keep", "name_pinyin" : "Keep", "name_pinyin_abbr" : "K", "icon" : "Keep_cateic_jianshenfang.png", "type" : "expense", "parent_id" : null}, {"id" : "fb1107a3-c51f-4cb9-ab85-506fc26fc444", "name" : "健身", "name_en" : "jianshen", "name_pinyin" : "jianshen", "name_pinyin_abbr" : "js", "icon" : "健身_cateic_yundong.png", "type" : "expense", "parent_id" : null}, {"id" : "f6ab0857-a8ba-4df3-a312-f3b9d9e732a6", "name" : "防护品", "name_en" : "fanghupin", "name_pinyin" : "fanghupin", "name_pinyin_abbr" : "fhp", "icon" : "防护品_ic_cate_kouzhao.png", "type" : "expense", "parent_id" : null}, {"id" : "65af0878-1271-4fb1-b922-894421ef466b", "name" : "挂号费", "name_en" : "guahaofei", "name_pinyin" : "guahaofei", "name_pinyin_abbr" : "ghf", "icon" : "挂号费_ic_cate2_guahao.png", "type" : "expense", "parent_id" : null}, {"id" : "2ffb1ea2-90ea-444f-99bd-04dd04d4a478", "name" : "保健品", "name_en" : "baojianpin", "name_pinyin" : "baojianpin", "name_pinyin_abbr" : "bjp", "icon" : "保健品_cate_baojianpin.png", "type" : "expense", "parent_id" : null}, {"id" : "87f92078-0f1c-40d5-b49d-c4e31655acf2", "name" : "药品", "name_en" : "yaopin", "name_pinyin" : "yaopin", "name_pinyin_abbr" : "yp", "icon" : "药品_ic_cate2_yaoping.png", "type" : "expense", "parent_id" : null}, {"id" : "7e0d59e1-3a1b-4b10-8fae-8fa348a50368", "name" : "住院", "name_en" : "zhuyuan", "name_pinyin" : "zhuyuan", "name_pinyin_abbr" : "zy", "icon" : "住院_ic_cate2_zhuyuan.png", "type" : "expense", "parent_id" : null}, {"id" : "d5855268-5ed2-489d-bdb0-87c3d012dabb", "name" : "保健", "name_en" : "baojian", "name_pinyin" : "baojian", "name_pinyin_abbr" : "bj", "icon" : "保健_ic_cate2_baojian.png", "type" : "expense", "parent_id" : null}, {"id" : "d1f5b16d-3908-46cb-87f8-fda146e41061", "name" : "会员", "name_en" : "huiyuan", "name_pinyin" : "huiyuan", "name_pinyin_abbr" : "hy", "icon" : "会员_ic_cate2_apphuiyuan.png", "type" : "expense", "parent_id" : null}, {"id" : "cbdf8d79-f148-45de-a0a8-57a5bc8e6781", "name" : "Apple iTunes", "name_en" : "Apple iTunes", "name_pinyin" : "Apple iTunes", "name_pinyin_abbr" : "A", "icon" : "Apple iTunes_cateic_applemusic.png", "type" : "expense", "parent_id" : null}, {"id" : "e3cc9768-2746-4de6-a6cb-39e923bdfab3", "name" : "亚马逊", "name_en" : "yamaxun", "name_pinyin" : "yamaxun", "name_pinyin_abbr" : "ymx", "icon" : "亚马逊_cateic_amazon.png", "type" : "expense", "parent_id" : null}, {"id" : "52a2668f-5bd2-4337-bc7f-21fd09c55d49", "name" : "微软", "name_en" : "weiruan", "name_pinyin" : "weiruan", "name_pinyin_abbr" : "wr", "icon" : "微软_cate_microsoft.png", "type" : "expense", "parent_id" : null}, {"id" : "f07c6fe5-8924-4b56-b097-bbf3a6c2d3dd", "name" : "百度文库", "name_en" : "baiduwenku", "name_pinyin" : "baiduwenku", "name_pinyin_abbr" : "bdwk", "icon" : "百度文库_cateic_baiduyun.png", "type" : "expense", "parent_id" : null}, {"id" : "8a0851cb-027b-4022-8bac-d3db44f998c7", "name" : "唯品会", "name_en" : "weipinhui", "name_pinyin" : "weipinhui", "name_pinyin_abbr" : "wph", "icon" : "唯品会_cate_wph.png", "type" : "expense", "parent_id" : null}, {"id" : "6248439d-6565-47ca-b51f-a4950d1d6606", "name" : "夸克网盘", "name_en" : "kuakewangpan", "name_pinyin" : "kuakewangpan", "name_pinyin_abbr" : "kkwp", "icon" : "夸克网盘_cate_kuakewp.png", "type" : "expense", "parent_id" : null}, {"id" : "23a0d0b0-1b28-499c-b726-45bf1d177f41", "name" : "在线视频", "name_en" : "zaixianshipin", "name_pinyin" : "zaixianshipin", "name_pinyin_abbr" : "zxsp", "icon" : "在线视频_cateic_youtube.png", "type" : "expense", "parent_id" : null}, {"id" : "d16c13f2-780a-4f7d-9acb-b99e084f5cff", "name" : "网易严选", "name_en" : "wangyiyanxuan", "name_pinyin" : "wangyiyanxuan", "name_pinyin_abbr" : "wyyx", "icon" : "网易严选_cateic_yanxuan.png", "type" : "expense", "parent_id" : null}, {"id" : "c8e7d24d-cd70-414d-a51c-cdfd232723ea", "name" : "WPS", "name_en" : "WPS", "name_pinyin" : "WPS", "name_pinyin_abbr" : "W", "icon" : "WPS_cate_wps.png", "type" : "expense", "parent_id" : null}, {"id" : "8e112c4a-73bd-45f7-b1e8-1c75f1557fab", "name" : "小米云", "name_en" : "xiaomiyun", "name_pinyin" : "xiaomiyun", "name_pinyin_abbr" : "xmy", "icon" : "小米云_cateic_xiaomiyun.png", "type" : "expense", "parent_id" : null}, {"id" : "64004a76-0e90-4feb-9178-e9ff70768368", "name" : "京东Plus", "name_en" : "jingdongPlus", "name_pinyin" : "jingdongPlus", "name_pinyin_abbr" : "jdP", "icon" : "京东Plus_cateic_jingdong.png", "type" : "expense", "parent_id" : null}, {"id" : "7a060ab0-3ff0-4ad7-bf12-433a41b583b1", "name" : "HBO", "name_en" : "HBO", "name_pinyin" : "HBO", "name_pinyin_abbr" : "H", "icon" : "HBO_cateic_hbo.png", "type" : "expense", "parent_id" : null}, {"id" : "34a17e48-3023-45cb-9a6b-0c43271131e9", "name" : "咪咕视频", "name_en" : "migushipin", "name_pinyin" : "migushipin", "name_pinyin_abbr" : "mgsp", "icon" : "咪咕视频_cateic_migu.png", "type" : "expense", "parent_id" : null}, {"id" : "b13130bf-5ae7-4732-b54a-278853acf6d4", "name" : "迅雷", "name_en" : "xunlei", "name_pinyin" : "xunlei", "name_pinyin_abbr" : "xl", "icon" : "迅雷_cate_xunlei.png", "type" : "expense", "parent_id" : null}, {"id" : "c659caad-fc9c-4f97-a655-0be8614a6997", "name" : "喜马拉雅", "name_en" : "ximalaya", "name_pinyin" : "ximalaya", "name_pinyin_abbr" : "xmly", "icon" : "喜马拉雅_cateic_ximalaya.png", "type" : "expense", "parent_id" : null}, {"id" : "161ac2c0-0b27-4438-846a-76b06506a0f9", "name" : "iCloud", "name_en" : "iCloud", "name_pinyin" : "iCloud", "name_pinyin_abbr" : "i", "icon" : "iCloud_cateic_icloud.png", "type" : "expense", "parent_id" : null}, {"id" : "33a372a5-df15-456a-822f-7e6e5050e72c", "name" : "网易云音乐", "name_en" : "wangyiyunyinyue", "name_pinyin" : "wangyiyunyinyue", "name_pinyin_abbr" : "wyyyy", "icon" : "网易云音乐_cateic_wangyimusic.png", "type" : "expense", "parent_id" : null}, {"id" : "19d2cdb9-1fbb-4bff-86c9-132575c75cc8", "name" : "抖音", "name_en" : "douyin", "name_pinyin" : "douyin", "name_pinyin_abbr" : "dy", "icon" : "抖音_cateic_douying.png", "type" : "expense", "parent_id" : null}, {"id" : "bc99a465-769d-41ad-8a1b-b1611e08204e", "name" : "酷狗音乐", "name_en" : "kugouyinyue", "name_pinyin" : "kugouyinyue", "name_pinyin_abbr" : "kgyy", "icon" : "酷狗音乐_cateic_kugou.png", "type" : "expense", "parent_id" : null}, {"id" : "241edc08-2f44-4523-afc0-8356840a390e", "name" : "酷我音乐", "name_en" : "kuwoyinyue", "name_pinyin" : "kuwoyinyue", "name_pinyin_abbr" : "kwyy", "icon" : "酷我音乐_cateic_kuwo.png", "type" : "expense", "parent_id" : null}, {"id" : "844f1482-4f9e-4951-8606-23c65a7c30f2", "name" : "芒果TV", "name_en" : "mangguoTV", "name_pinyin" : "mangguoTV", "name_pinyin_abbr" : "mgT", "icon" : "芒果TV_cateic_mangguotv.png", "type" : "expense", "parent_id" : null}, {"id" : "2d281884-09ec-47fb-89a5-3f553615aa85", "name" : "QQ会员", "name_en" : "QQhuiyuan", "name_pinyin" : "QQhuiyuan", "name_pinyin_abbr" : "Qhy", "icon" : "QQ会员_cateic_qqvip.png", "type" : "expense", "parent_id" : null}, {"id" : "22d361fe-8ece-4514-80ea-b836bcaf5871", "name" : "AppleTV", "name_en" : "AppleTV", "name_pinyin" : "AppleTV", "name_pinyin_abbr" : "A", "icon" : "AppleTV_cateic_applemusic.png", "type" : "expense", "parent_id" : null}, {"id" : "3dde13e3-5544-4d01-84e9-6e8f68ff4ee1", "name" : "腾讯微云", "name_en" : "tengxunweiyun", "name_pinyin" : "tengxunweiyun", "name_pinyin_abbr" : "txwy", "icon" : "腾讯微云_cateic_tencentcloud.png", "type" : "expense", "parent_id" : null}, {"id" : "904543ba-5a02-4901-a479-97800e2e1d1b", "name" : "Netflix", "name_en" : "Netflix", "name_pinyin" : "Netflix", "name_pinyin_abbr" : "N", "icon" : "Netflix_cateic_netflix.png", "type" : "expense", "parent_id" : null}, {"id" : "69814558-868d-407b-b6dc-92de4afc0c9b", "name" : "腾讯体育", "name_en" : "tengxuntiyu", "name_pinyin" : "tengxuntiyu", "name_pinyin_abbr" : "txty", "icon" : "腾讯体育_cateic_tencentsport.png", "type" : "expense", "parent_id" : null}, {"id" : "48e1e321-dedb-4514-9ed5-add8c1aa9d43", "name" : "美团", "name_en" : "meituan", "name_pinyin" : "meituan", "name_pinyin_abbr" : "mt", "icon" : "美团_cateic_meituan.png", "type" : "expense", "parent_id" : null}, {"id" : "c94e9b6a-f4de-4bb3-9c42-f9aa43867a89", "name" : "115网盘", "name_en" : "115wangpan", "name_pinyin" : "115wangpan", "name_pinyin_abbr" : "1wp", "icon" : "115网盘_cateic_115.png", "type" : "expense", "parent_id" : null}, {"id" : "a165c742-9da1-4677-a046-c293d3614832", "name" : "优酷", "name_en" : "youku", "name_pinyin" : "youku", "name_pinyin_abbr" : "yk", "icon" : "优酷_cateic_youku.png", "type" : "expense", "parent_id" : null}, {"id" : "b2c40024-4293-4911-bda8-ada14b4101cd", "name" : "阿里云盘", "name_en" : "aliyunpan", "name_pinyin" : "aliyunpan", "name_pinyin_abbr" : "alyp", "icon" : "阿里云盘_cateic_aliyunpan.png", "type" : "expense", "parent_id" : null}, {"id" : "36045ef7-a5ec-4a59-8fc2-aee762552e7c", "name" : "购物", "name_en" : "gouwu", "name_pinyin" : "gouwu", "name_pinyin_abbr" : "gw", "icon" : "购物_cateic_gouwu2.png", "type" : "expense", "parent_id" : null}, {"id" : "0f33b04a-ff7a-4012-be6d-c78047e60de6", "name" : "购物", "name_en" : "gouwu", "name_pinyin" : "gouwu", "name_pinyin_abbr" : "gw", "icon" : "购物_cateic_gouwu2.png", "type" : "expense", "parent_id" : null}, {"id" : "ce808ff1-0347-4385-890f-aa9556d0b732", "name" : "购物", "name_en" : "gouwu", "name_pinyin" : "gouwu", "name_pinyin_abbr" : "gw", "icon" : "购物_cateic_gouwu2.png", "type" : "expense", "parent_id" : null}, {"id" : "4af2b8a0-853d-42df-8005-70ac18d72f11", "name" : "购物", "name_en" : "gouwu", "name_pinyin" : "gouwu", "name_pinyin_abbr" : "gw", "icon" : "购物_cateic_gouwu2.png", "type" : "expense", "parent_id" : null}, {"id" : "7fbae184-43f5-402e-bedd-74fe32b4eb29", "name" : "购物", "name_en" : "gouwu", "name_pinyin" : "gouwu", "name_pinyin_abbr" : "gw", "icon" : "购物_cateic_gouwu2.png", "type" : "expense", "parent_id" : null}, {"id" : "02b98f28-a31c-4fbc-9fb4-e406a64c6169", "name" : "购物", "name_en" : "gouwu", "name_pinyin" : "gouwu", "name_pinyin_abbr" : "gw", "icon" : "购物_cateic_gouwu2.png", "type" : "expense", "parent_id" : null}, {"id" : "0238f902-f2a1-4f74-989b-cc6c9d3d93d7", "name" : "购物", "name_en" : "gouwu", "name_pinyin" : "gouwu", "name_pinyin_abbr" : "gw", "icon" : "购物_cateic_gouwu2.png", "type" : "expense", "parent_id" : null}, {"id" : "d38ce038-f54e-4861-a3c8-4ad3722bbfe4", "name" : "购物", "name_en" : "gouwu", "name_pinyin" : "gouwu", "name_pinyin_abbr" : "gw", "icon" : "购物_cateic_gouwu2.png", "type" : "expense", "parent_id" : null}, {"id" : "19200d00-99ea-439e-bf46-b27363ecea27", "name" : "购物", "name_en" : "gouwu", "name_pinyin" : "gouwu", "name_pinyin_abbr" : "gw", "icon" : "购物_cateic_gouwu2.png", "type" : "expense", "parent_id" : null}, {"id" : "4264b3d3-345b-40a7-a6a1-d5284b9bf867", "name" : "购物", "name_en" : "gouwu", "name_pinyin" : "gouwu", "name_pinyin_abbr" : "gw", "icon" : "购物_cateic_gouwu2.png", "type" : "expense", "parent_id" : null}, {"id" : "e8596233-a787-4394-a591-867b70d87866", "name" : "购物", "name_en" : "gouwu", "name_pinyin" : "gouwu", "name_pinyin_abbr" : "gw", "icon" : "购物_cateic_gouwu2.png", "type" : "expense", "parent_id" : null}, {"id" : "28ca9a28-c834-48ba-a5e7-31d502229ed5", "name" : "购物", "name_en" : "gouwu", "name_pinyin" : "gouwu", "name_pinyin_abbr" : "gw", "icon" : "购物_cateic_gouwu2.png", "type" : "expense", "parent_id" : null}, {"id" : "192d4e63-007c-4b2e-a1d1-263a80c974d0", "name" : "生鲜水果", "name_en" : "shengxianshuiguo", "name_pinyin" : "shengxianshuiguo", "name_pinyin_abbr" : "sxsg", "icon" : "生鲜水果_cate_shuiguo.png", "type" : "expense", "parent_id" : null}, {"id" : "71d99583-af78-4af7-837d-480c4d600c0d", "name" : "电器", "name_en" : "dianqi", "name_pinyin" : "dianqi", "name_pinyin_abbr" : "dq", "icon" : "电器_icon_83717394.png", "type" : "expense", "parent_id" : null}, {"id" : "1703f5cc-f03e-4aab-935d-71e0a2f06af7", "name" : "袜子", "name_en" : "wazi", "name_pinyin" : "wazi", "name_pinyin_abbr" : "wz", "icon" : "袜子_cateic_wazi.png", "type" : "expense", "parent_id" : null}, {"id" : "4c5d0964-c6c5-4b2c-9551-061e9049b94f", "name" : "超市卡-京东", "name_en" : "chaoshika-jingdong", "name_pinyin" : "chaoshika-jingdong", "name_pinyin_abbr" : "csk-jd", "icon" : "超市卡-京东_cateic_jingdong.png", "type" : "expense", "parent_id" : null}, {"id" : "4f2c3e18-7a45-42e7-a740-303a46d2dcbe", "name" : "超市卡-天猫", "name_en" : "chaoshika-tianmao", "name_pinyin" : "chaoshika-tianmao", "name_pinyin_abbr" : "csk-tm", "icon" : "超市卡-天猫_cateic_tianmao.png", "type" : "expense", "parent_id" : null}, {"id" : "2222b9c9-f2e2-4052-87fe-956b76a0b56b", "name" : "理发", "name_en" : "lifa", "name_pinyin" : "lifa", "name_pinyin_abbr" : "lf", "icon" : "理发_ic_cate2_lifa.png", "type" : "expense", "parent_id" : null}, {"id" : "375af512-7469-4cf6-94b7-f812d109f796", "name" : "美容美发", "name_en" : "meirongmeifa", "name_pinyin" : "meirongmeifa", "name_pinyin_abbr" : "mrmf", "icon" : "美容美发_ic_cate2_lifa.png", "type" : "expense", "parent_id" : null}, {"id" : "284ec770-2d95-4ebe-80bb-ce94724130b7", "name" : "饰品", "name_en" : "shipin", "name_pinyin" : "shipin", "name_pinyin_abbr" : "sp", "icon" : "饰品_ic_cate2_shipin.png", "type" : "expense", "parent_id" : null}, {"id" : "ee844665-28b6-4e0b-bf03-77a6c064d7dd", "name" : "箱包", "name_en" : "xiangbao", "name_pinyin" : "xiangbao", "name_pinyin_abbr" : "xb", "icon" : "箱包_cateic_baobao.png", "type" : "expense", "parent_id" : null}, {"id" : "8fa44e74-e66d-478d-8d65-59024ca0cf45", "name" : "鞋", "name_en" : "xie", "name_pinyin" : "xie", "name_pinyin_abbr" : "x", "icon" : "鞋_cateic_qiuxie.png", "type" : "expense", "parent_id" : null}, {"id" : "ecdb4b12-cb57-4497-89b6-427183033508", "name" : "洗护", "name_en" : "xihu", "name_pinyin" : "xihu", "name_pinyin_abbr" : "xh", "icon" : "洗护_cateic_meizhuang.png", "type" : "expense", "parent_id" : null}, {"id" : "1f3c6464-6707-48d3-996d-3354511ee502", "name" : "彩票", "name_en" : "caipiao", "name_pinyin" : "caipiao", "name_pinyin_abbr" : "cp", "icon" : "彩票_cateic_caipiao.png", "type" : "expense", "parent_id" : null}, {"id" : "e60a5fd0-eab1-4733-a219-b0d7ce0839f0", "name" : "公司报销", "name_en" : "gongsibaoxiao", "name_pinyin" : "gongsibaoxiao", "name_pinyin_abbr" : "gsbx", "icon" : "公司报销_ic_cate2_gongzi.png", "type" : "expense", "parent_id" : null}, {"id" : "b760a448-0c90-45c5-9881-ba48a4e970a2", "name" : "书刊杂志", "name_en" : "shukanzazhi", "name_pinyin" : "shukanzazhi", "name_pinyin_abbr" : "skzz", "icon" : "书刊杂志_ic_cate2_shuji.png", "type" : "expense", "parent_id" : null}, {"id" : "1f5e9c23-0158-4da9-b7ec-8776331d1d5e", "name" : "电子书", "name_en" : "dianzishu", "name_pinyin" : "dianzishu", "name_pinyin_abbr" : "dzs", "icon" : "电子书_ic_cate2_shuji.png", "type" : "expense", "parent_id" : null}, {"id" : "fe02d3f4-9383-44b3-a292-1ce463864e97", "name" : "自我提升", "name_en" : "ziwotisheng", "name_pinyin" : "ziwotisheng", "name_pinyin_abbr" : "zwts", "icon" : "自我提升_ic_cate2_kaoshi.png", "type" : "expense", "parent_id" : null}, {"id" : "8ddebba9-3d30-4d1d-862b-e9901707278f", "name" : "报名费", "name_en" : "baomingfei", "name_pinyin" : "baomingfei", "name_pinyin_abbr" : "bmf", "icon" : "报名费_cateic_baomingfei.png", "type" : "expense", "parent_id" : null}, {"id" : "cfa12c60-71e0-48f3-b841-0c774211524f", "name" : "考试", "name_en" : "kaoshi", "name_pinyin" : "kaoshi", "name_pinyin_abbr" : "ks", "icon" : "考试_ic_cate2_kaoshi.png", "type" : "expense", "parent_id" : null}, {"id" : "7bac521f-1049-42c4-9a9e-84d649f94dc6", "name" : "金融", "name_en" : "jinrong", "name_pinyin" : "jinrong", "name_pinyin_abbr" : "jr", "icon" : "金融_cateic_licai.png", "type" : "expense", "parent_id" : null}, {"id" : "00c79627-08f0-491b-8ae6-d9e8f402d438", "name" : "保险", "name_en" : "baoxian", "name_pinyin" : "baoxian", "name_pinyin_abbr" : "bx", "icon" : "保险_ic_cate2_baoxian.png", "type" : "expense", "parent_id" : null}, {"id" : "13e9a370-641e-4bb4-8cad-8bed13be58d8", "name" : "信用卡年费", "name_en" : "xinyongkanianfei", "name_pinyin" : "xinyongkanianfei", "name_pinyin_abbr" : "xyknf", "icon" : "信用卡年费_cate_nianfei.png", "type" : "expense", "parent_id" : null}, {"id" : "ae4a4016-306b-466f-96b4-93225e94d88e", "name" : "债券", "name_en" : "zhaiquan", "name_pinyin" : "zhaiquan", "name_pinyin_abbr" : "zq", "icon" : "债券_cateic_zhaiquan.png", "type" : "expense", "parent_id" : null}, {"id" : "75d8a19b-5097-45a1-90fa-e6726fc77c5f", "name" : "利息", "name_en" : "lixi", "name_pinyin" : "lixi", "name_pinyin_abbr" : "lx", "icon" : "利息_cateic_lixi.png", "type" : "expense", "parent_id" : null}, {"id" : "2b759315-a610-4bbf-bee1-667d6bb8ae73", "name" : "基金", "name_en" : "jijin", "name_pinyin" : "jijin", "name_pinyin_abbr" : "jj", "icon" : "基金_cateic_jijin.png", "type" : "expense", "parent_id" : null}, {"id" : "6ac97071-719b-481a-b113-45aba2931336", "name" : "外汇", "name_en" : "waihui", "name_pinyin" : "waihui", "name_pinyin_abbr" : "wh", "icon" : "外汇_cateic_waihui.png", "type" : "expense", "parent_id" : null}, {"id" : "ac7b223e-b448-4c03-8ec7-28feff8f792e", "name" : "手续费", "name_en" : "shouxufei", "name_pinyin" : "shouxufei", "name_pinyin_abbr" : "sxf", "icon" : "手续费_ic_cate2_shouxufei.png", "type" : "expense", "parent_id" : null}, {"id" : "c61cfa54-78b6-4fd5-9cb0-948ecc947aa6", "name" : "股票", "name_en" : "gupiao", "name_pinyin" : "gupiao", "name_pinyin_abbr" : "gp", "icon" : "股票_cateic_gupiao.png", "type" : "expense", "parent_id" : null}, {"id" : "3cef4f71-d011-40ec-9761-2cf9cd97348d", "name" : "违约金", "name_en" : "weiyuejin", "name_pinyin" : "weiyuejin", "name_pinyin_abbr" : "wyj", "icon" : "违约金_ic_cate2_shouxufei.png", "type" : "expense", "parent_id" : null}, {"id" : "6c37e4da-f807-4394-888c-254e753a96a5", "name" : "黄金", "name_en" : "huangjin", "name_pinyin" : "huangjin", "name_pinyin_abbr" : "hj", "icon" : "黄金_cateic_huangjin.png", "type" : "expense", "parent_id" : null}, {"id" : "56b867ed-705c-45f8-b890-2b69631f4509", "name" : "水电煤", "name_en" : "shuidianmei", "name_pinyin" : "shuidianmei", "name_pinyin_abbr" : "sdm", "icon" : "水电煤_ic_cate2_shuidianmei.png", "type" : "expense", "parent_id" : null}, {"id" : "5d017208-2818-4ce2-afca-7c0ff16c0bc0", "name" : "付费会员", "name_en" : "fufeihuiyuan", "name_pinyin" : "fufeihuiyuan", "name_pinyin_abbr" : "ffhy", "icon" : "付费会员_ic_cate2_apphuiyuan.png", "type" : "expense", "parent_id" : null}, {"id" : "14b1968c-2e7a-4058-9379-3d1d44a5b2bc", "name" : "阿里1688", "name_en" : "ali1688", "name_pinyin" : "ali1688", "name_pinyin_abbr" : "al1", "icon" : "阿里1688_cate_1688.png", "type" : "expense", "parent_id" : null}, {"id" : "55c56cce-50d9-460b-8395-67128fd43856", "name" : "快手", "name_en" : "kuaishou", "name_pinyin" : "kuaishou", "name_pinyin_abbr" : "ks", "icon" : "快手_cate_kuaishou.png", "type" : "expense", "parent_id" : null}, {"id" : "9fe11b60-9b25-48fb-b181-04c7ee10c783", "name" : "掌阅", "name_en" : "zhangyue", "name_pinyin" : "zhangyue", "name_pinyin_abbr" : "zy", "icon" : "掌阅_cate_zhangyue.png", "type" : "expense", "parent_id" : null}, {"id" : "8f049e26-cb19-4001-848c-a97e92513cc9", "name" : "Spotify", "name_en" : "Spotify", "name_pinyin" : "Spotify", "name_pinyin_abbr" : "S", "icon" : "Spotify_cateic_spotify.png", "type" : "expense", "parent_id" : null}, {"id" : "7bf1948a-ea27-4cf1-ab87-6571aa77c096", "name" : "虎牙", "name_en" : "huya", "name_pinyin" : "huya", "name_pinyin_abbr" : "hy", "icon" : "虎牙_cateic_huya.png", "type" : "expense", "parent_id" : null}, {"id" : "09e2892e-bb65-4dfb-8a78-146f679c4996", "name" : "斗鱼", "name_en" : "douyu", "name_pinyin" : "douyu", "name_pinyin_abbr" : "dy", "icon" : "斗鱼_cate_douyu.png", "type" : "expense", "parent_id" : null}, {"id" : "2b133bfb-cb61-4a1f-be28-fd00275051b4", "name" : "腾讯加速器", "name_en" : "tengxunjiasuqi", "name_pinyin" : "tengxunjiasuqi", "name_pinyin_abbr" : "txjsq", "icon" : "腾讯加速器_cateic_tengxunjiasu.png", "type" : "expense", "parent_id" : null}, {"id" : "656d7592-9222-41f6-9607-37c140fb586e", "name" : "AcFun", "name_en" : "AcFun", "name_pinyin" : "AcFun", "name_pinyin_abbr" : "A", "icon" : "AcFun_cate_acfun.png", "type" : "expense", "parent_id" : null}, {"id" : "722e9979-0db5-4ba4-b496-f682bc952b12", "name" : "书旗小说", "name_en" : "shuqixiaoshuo", "name_pinyin" : "shuqixiaoshuo", "name_pinyin_abbr" : "sqxs", "icon" : "书旗小说_cateic_shuqi.png", "type" : "expense", "parent_id" : null}, {"id" : "b226beb8-31b1-4626-ac6c-dc3b68297263", "name" : "快看漫画", "name_en" : "kuaikanmanhua", "name_pinyin" : "kuaikanmanhua", "name_pinyin_abbr" : "kkmh", "icon" : "快看漫画_cateic_kuaikan.png", "type" : "expense", "parent_id" : null}, {"id" : "2663e710-da40-4c70-b57e-40ea8fa4f752", "name" : "纪念品", "name_en" : "jinianpin", "name_pinyin" : "jinianpin", "name_pinyin_abbr" : "jnp", "icon" : "纪念品_cateic_manghe.png", "type" : "expense", "parent_id" : null}, {"id" : "e68da2d1-34df-4a7f-b4ab-6de1450be760", "name" : "购买特产", "name_en" : "goumaitechan", "name_pinyin" : "goumaitechan", "name_pinyin_abbr" : "gmtc", "icon" : "购买特产_cateic_shouban.png", "type" : "expense", "parent_id" : null}, {"id" : "b69393b0-5c59-4607-94d1-3ea51a8fdd56", "name" : "网费", "name_en" : "wangfei", "name_pinyin" : "wangfei", "name_pinyin_abbr" : "wf", "icon" : "网费_cateic_wangluo.png", "type" : "expense", "parent_id" : null}, {"id" : "1d69666c-9f76-4a7a-8170-1073974fd156", "name" : "日常", "name_en" : "richang", "name_pinyin" : "richang", "name_pinyin_abbr" : "rc", "icon" : "日常_cateic_richang2.png", "type" : "expense", "parent_id" : null}, {"id" : "264b85c7-fe94-4b43-83e4-9a1e036a231e", "name" : "乔迁收礼", "name_en" : "qiaoqianshouli", "name_pinyin" : "qiaoqianshouli", "name_pinyin_abbr" : "qqsl", "icon" : "乔迁收礼_cateic3_qiaoqian.png", "type" : "income", "parent_id" : null}, {"id" : "7e4c3a47-60d0-4aae-a857-0291d88af0ad", "name" : "充值", "name_en" : "chongzhi", "name_pinyin" : "chongzhi", "name_pinyin_abbr" : "cz", "icon" : "充值_ic_cate2_jiangjin.png", "type" : "income", "parent_id" : null}, {"id" : "4c272142-7937-4953-9ef6-0cbe859eaac8", "name" : "赔付", "name_en" : "peifu", "name_pinyin" : "peifu", "name_pinyin_abbr" : "pf", "icon" : "赔付_cateic_zhihuan.png", "type" : "income", "parent_id" : null}, {"id" : "3d976b54-e4bb-47bd-8806-5ba64820bb55", "name" : "外快", "name_en" : "waikuai", "name_pinyin" : "waikuai", "name_pinyin_abbr" : "wk", "icon" : "外快_cateic_waikuai.png", "type" : "income", "parent_id" : null}, {"id" : "91ac85d1-e139-4c56-a510-da7ae78a784f", "name" : "寿辰收礼", "name_en" : "shouchenshouli", "name_pinyin" : "shouchenshouli", "name_pinyin_abbr" : "scsl", "icon" : "寿辰收礼_cateic3_shengri.png", "type" : "income", "parent_id" : null}, {"id" : "c02bc5ec-70f4-481f-b0f0-ab8412468663", "name" : "工资", "name_en" : "gongzi", "name_pinyin" : "gongzi", "name_pinyin_abbr" : "gz", "icon" : "工资_cateic_gongzi.png", "type" : "income", "parent_id" : null}, {"id" : "d2c48f1a-8137-4768-bdfe-78c1c40259ff", "name" : "工资", "name_en" : "gongzi", "name_pinyin" : "gongzi", "name_pinyin_abbr" : "gz", "icon" : "工资_cateic_gongzi.png", "type" : "income", "parent_id" : null}, {"id" : "b3f185a3-026c-46b9-9005-dd3b7299935d", "name" : "工资", "name_en" : "gongzi", "name_pinyin" : "gongzi", "name_pinyin_abbr" : "gz", "icon" : "工资_cateic_gongzi.png", "type" : "income", "parent_id" : null}, {"id" : "e10c25d2-3a0d-4964-9eb5-2b04635b9d85", "name" : "工资", "name_en" : "gongzi", "name_pinyin" : "gongzi", "name_pinyin_abbr" : "gz", "icon" : "工资_cateic_gongzi.png", "type" : "income", "parent_id" : null}, {"id" : "efe358d1-8567-481a-a58e-c9838648e9d0", "name" : "工资", "name_en" : "gongzi", "name_pinyin" : "gongzi", "name_pinyin_abbr" : "gz", "icon" : "工资_cateic_gongzi.png", "type" : "income", "parent_id" : null}, {"id" : "fe751c29-f83b-42a7-a9b1-0c758067782d", "name" : "工资", "name_en" : "gongzi", "name_pinyin" : "gongzi", "name_pinyin_abbr" : "gz", "icon" : "工资_cateic_gongzi.png", "type" : "income", "parent_id" : null}, {"id" : "856f98fe-b4e3-4618-8d07-a6a6fdc29ea8", "name" : "工资", "name_en" : "gongzi", "name_pinyin" : "gongzi", "name_pinyin_abbr" : "gz", "icon" : "工资_cateic_gongzi.png", "type" : "income", "parent_id" : null}, {"id" : "79682b4a-46d5-48e6-899f-df1a9151eabf", "name" : "工资", "name_en" : "gongzi", "name_pinyin" : "gongzi", "name_pinyin_abbr" : "gz", "icon" : "工资_cateic_gongzi.png", "type" : "income", "parent_id" : null}, {"id" : "b4682c35-c591-4037-98d4-58fc6aef356d", "name" : "工资", "name_en" : "gongzi", "name_pinyin" : "gongzi", "name_pinyin_abbr" : "gz", "icon" : "工资_cateic_gongzi.png", "type" : "income", "parent_id" : null}, {"id" : "4be58377-461f-41f7-a0b5-489173b20920", "name" : "工资", "name_en" : "gongzi", "name_pinyin" : "gongzi", "name_pinyin_abbr" : "gz", "icon" : "工资_cateic_gongzi.png", "type" : "income", "parent_id" : null}, {"id" : "1d472863-d2ec-49f6-ae5b-c5b53f5106fd", "name" : "工资", "name_en" : "gongzi", "name_pinyin" : "gongzi", "name_pinyin_abbr" : "gz", "icon" : "工资_cateic_gongzi.png", "type" : "income", "parent_id" : null}, {"id" : "7d99dd41-cd4f-47e8-a07f-24792d7eb13c", "name" : "工资", "name_en" : "gongzi", "name_pinyin" : "gongzi", "name_pinyin_abbr" : "gz", "icon" : "工资_cateic_gongzi.png", "type" : "income", "parent_id" : null}, {"id" : "357f5fe4-1c6c-4ed9-81ad-c8e366deda90", "name" : "生活费", "name_en" : "shenghuofei", "name_pinyin" : "shenghuofei", "name_pinyin_abbr" : "shf", "icon" : "生活费_cateic_shenghuofei.png", "type" : "income", "parent_id" : null}, {"id" : "254289ce-3ca8-4da5-9111-5ce3c9698469", "name" : "医保", "name_en" : "yibao", "name_pinyin" : "yibao", "name_pinyin_abbr" : "yb", "icon" : "医保_ic_cate2_yibao.png", "type" : "income", "parent_id" : null}, {"id" : "b00f2733-e09c-4732-8abd-058c7b1fab65", "name" : "提成", "name_en" : "ticheng", "name_pinyin" : "ticheng", "name_pinyin_abbr" : "tc", "icon" : "提成_ic_cate2_ticheng.png", "type" : "income", "parent_id" : null}, {"id" : "6946ad2d-2d9d-44f5-a501-58738c1a5648", "name" : "其他收益", "name_en" : "qitashouyi", "name_pinyin" : "qitashouyi", "name_pinyin_abbr" : "qtsy", "icon" : "其他收益_cateic_other.png", "type" : "income", "parent_id" : null}, {"id" : "cea2b42c-b444-490c-b7c9-f9b5f68bc381", "name" : "公积金", "name_en" : "gongjijin", "name_pinyin" : "gongjijin", "name_pinyin_abbr" : "gjj", "icon" : "公积金_ic_cate2_gongjijin.png", "type" : "income", "parent_id" : null}, {"id" : "b5fe0d95-526a-4f78-a302-e3701e07ebad", "name" : "分红", "name_en" : "fenhong", "name_pinyin" : "fenhong", "name_pinyin_abbr" : "fh", "icon" : "分红_ic_cate2_jiangjin.png", "type" : "income", "parent_id" : null}, {"id" : "69fe283f-73f4-49b8-b17e-ec57f7cc88d8", "name" : "租金", "name_en" : "zujin", "name_pinyin" : "zujin", "name_pinyin_abbr" : "zj", "icon" : "租金_ic_cate2_zujin.png", "type" : "income", "parent_id" : null}, {"id" : "1f4a8183-73cd-4beb-96cc-7bd7b3792b7c", "name" : "奖金", "name_en" : "jiangjin", "name_pinyin" : "jiangjin", "name_pinyin_abbr" : "jj", "icon" : "奖金_ic_cate2_jiangjin.png", "type" : "income", "parent_id" : null}, {"id" : "ecf446b5-e608-4f03-9143-e7f3c0029e11", "name" : "奖金", "name_en" : "jiangjin", "name_pinyin" : "jiangjin", "name_pinyin_abbr" : "jj", "icon" : "奖金_ic_cate2_jiangjin.png", "type" : "income", "parent_id" : null}, {"id" : "ed693ef2-939b-4706-a09d-e62aed01bbdf", "name" : "奖金", "name_en" : "jiangjin", "name_pinyin" : "jiangjin", "name_pinyin_abbr" : "jj", "icon" : "奖金_ic_cate2_jiangjin.png", "type" : "income", "parent_id" : null}, {"id" : "65207fbb-ae7d-4a7f-8c7c-fc3111dae28e", "name" : "奖金", "name_en" : "jiangjin", "name_pinyin" : "jiangjin", "name_pinyin_abbr" : "jj", "icon" : "奖金_ic_cate2_jiangjin.png", "type" : "income", "parent_id" : null}, {"id" : "86906b6e-06dd-4e63-865b-22cba5ed46a3", "name" : "奖金", "name_en" : "jiangjin", "name_pinyin" : "jiangjin", "name_pinyin_abbr" : "jj", "icon" : "奖金_ic_cate2_jiangjin.png", "type" : "income", "parent_id" : null}, {"id" : "617ee8f4-6727-42a4-81e1-2cf0c47e99d3", "name" : "奖金", "name_en" : "jiangjin", "name_pinyin" : "jiangjin", "name_pinyin_abbr" : "jj", "icon" : "奖金_ic_cate2_jiangjin.png", "type" : "income", "parent_id" : null}, {"id" : "e532c2f7-230d-4669-9a2e-0bddb912847f", "name" : "奖金", "name_en" : "jiangjin", "name_pinyin" : "jiangjin", "name_pinyin_abbr" : "jj", "icon" : "奖金_ic_cate2_jiangjin.png", "type" : "income", "parent_id" : null}, {"id" : "4366e5ef-6c26-4feb-ba43-2ccd54a2ce2e", "name" : "奖金", "name_en" : "jiangjin", "name_pinyin" : "jiangjin", "name_pinyin_abbr" : "jj", "icon" : "奖金_ic_cate2_jiangjin.png", "type" : "income", "parent_id" : null}, {"id" : "d5a8cac4-8796-418c-b12a-0906a3987cc6", "name" : "奖金", "name_en" : "jiangjin", "name_pinyin" : "jiangjin", "name_pinyin_abbr" : "jj", "icon" : "奖金_ic_cate2_jiangjin.png", "type" : "income", "parent_id" : null}, {"id" : "27e1c605-1c79-4209-8edb-be3a56ae5314", "name" : "奖金", "name_en" : "jiangjin", "name_pinyin" : "jiangjin", "name_pinyin_abbr" : "jj", "icon" : "奖金_ic_cate2_jiangjin.png", "type" : "income", "parent_id" : null}, {"id" : "eac58d64-694b-4e0c-9daf-495b082c3f8e", "name" : "奖金", "name_en" : "jiangjin", "name_pinyin" : "jiangjin", "name_pinyin_abbr" : "jj", "icon" : "奖金_ic_cate2_jiangjin.png", "type" : "income", "parent_id" : null}, {"id" : "8c195801-afea-4507-96ea-027cb9f4cd61", "name" : "奖金", "name_en" : "jiangjin", "name_pinyin" : "jiangjin", "name_pinyin_abbr" : "jj", "icon" : "奖金_ic_cate2_jiangjin.png", "type" : "income", "parent_id" : null}, {"id" : "134a96d6-3688-44cd-8179-4d032c7cc597", "name" : "差旅津贴", "name_en" : "chalvjintie", "name_pinyin" : "chalvjintie", "name_pinyin_abbr" : "cljt", "icon" : "差旅津贴_ic_cate2_jiangjin.png", "type" : "income", "parent_id" : null}, {"id" : "d8f0dd03-b424-40d7-85a1-80cddc952daa", "name" : "收益", "name_en" : "shouyi", "name_pinyin" : "shouyi", "name_pinyin_abbr" : "sy", "icon" : "收益_ic_cate2_shouxufei.png", "type" : "income", "parent_id" : null}, {"id" : "92fe1b21-4c2e-4a23-b5cc-e8a4ce97b081", "name" : "理财", "name_en" : "licai", "name_pinyin" : "licai", "name_pinyin_abbr" : "lc", "icon" : "理财_cateic_licai.png", "type" : "income", "parent_id" : null}, {"id" : "6cc2360e-5fdf-4ff6-be42-ab6a67a7e855", "name" : "收红包", "name_en" : "shouhongbao", "name_pinyin" : "shouhongbao", "name_pinyin_abbr" : "shb", "icon" : "收红包_cateic_fahongbao.png", "type" : "income", "parent_id" : null}, {"id" : "8ab48ff5-291f-4d6f-a4a7-7cdb8f92d670", "name" : "红包", "name_en" : "hongbao", "name_pinyin" : "hongbao", "name_pinyin_abbr" : "hb", "icon" : "红包_cateic_hongbao.png", "type" : "income", "parent_id" : null}, {"id" : "4e205790-42fd-4f99-a517-96e867beb910", "name" : "结婚收礼", "name_en" : "jiehunshouli", "name_pinyin" : "jiehunshouli", "name_pinyin_abbr" : "jhsl", "icon" : "结婚收礼_cateic3_hunjiasuili.png", "type" : "income", "parent_id" : null}, {"id" : "89a7a224-2eb2-40fa-b5d8-5c685ab7a944", "name" : "股票基金", "name_en" : "gupiaojijin", "name_pinyin" : "gupiaojijin", "name_pinyin_abbr" : "gpjj", "icon" : "股票基金_cateic_gupiao.png", "type" : "income", "parent_id" : null}, {"id" : "9292568a-6609-415e-84b4-464ec92da938", "name" : "二手置换", "name_en" : "ershouzhihuan", "name_pinyin" : "ershouzhihuan", "name_pinyin_abbr" : "eszh", "icon" : "二手置换_cateic_zhihuan.png", "type" : "income", "parent_id" : null}, {"id" : "f3724d70-7dcf-43d6-b804-a73127ba92be", "name" : "退税", "name_en" : "tuishui", "name_pinyin" : "tuishui", "name_pinyin_abbr" : "ts", "icon" : "退税_ic_cate2_tuishui.png", "type" : "income", "parent_id" : null}, {"id" : "cf6efc25-0d20-480c-9ce4-b941d121eb60", "name" : "孩子零花钱", "name_en" : "haizilinghuaqian", "name_pinyin" : "haizilinghuaqian", "name_pinyin_abbr" : "hzlhq", "icon" : "孩子零花钱_ic_cate2_linghuaqian.png", "type" : "income", "parent_id" : null}, {"id" : "99174bf1-25f8-45c1-a0f3-2f5a6d56a77e", "name" : "帮买", "name_en" : "bangmai", "name_pinyin" : "bangmai", "name_pinyin_abbr" : "bm", "icon" : "帮买_cateic_waikuai.png", "type" : "income", "parent_id" : null}, {"id" : "aa46a90c-2681-4b40-814c-649e2b2e4827", "name" : "礼金", "name_en" : "lijin", "name_pinyin" : "lijin", "name_pinyin_abbr" : "lj", "icon" : "礼金_cateic3_pinli.png", "type" : "income", "parent_id" : null}, {"id" : "162e203a-9994-46d5-b164-ed8a437a9982", "name" : "红包退回", "name_en" : "hongbaotuihui", "name_pinyin" : "hongbaotuihui", "name_pinyin_abbr" : "hbth", "icon" : "红包退回_cateic_fahongbao.png", "type" : "income", "parent_id" : null}, {"id" : "c78bb70b-4b51-4330-94a5-e76c62ea4991", "name" : "车险报销", "name_en" : "chexianbaoxiao", "name_pinyin" : "chexianbaoxiao", "name_pinyin_abbr" : "cxbx", "icon" : "车险报销_ic_cate2_qichebaoxian.png", "type" : "income", "parent_id" : null}, {"id" : "1aa1261e-dbb1-41c2-b5d4-688db15bcb9d", "name" : "退款", "name_en" : "tuikuan", "name_pinyin" : "tuikuan", "name_pinyin_abbr" : "tk", "icon" : "退款_cateic_other.png", "type" : "income", "parent_id" : null}]}
